,TRACKINGNUMBER,NAME,PHYSICALADDRESS,PHYSICALCITY,FACTYPE,LATITUDE,LONGITUDE
0,JDSO-ABZT44,Rocky Mountain Chocolate Factory (Guildford),10355 152 St,Surrey,Restaurant,49.19192585,-122.8042654
1,A019057    ,Rokko Japanese Restaurant,8952 152 St,Surrey,Restaurant,49.16530528,-122.80077813
2,NDAA-9QSNUX,Rokku Asian Cuisine,1990 152 St,Surrey,Restaurant,49.03807582,-122.80051906
3,A020062    ,Ronnie's Restaurant,6542 King George Blvd,Surrey,Restaurant,49.12158708,-122.84510713
4,NDAA-A3VQ76,Rose Sweets & Tandoori Hut,12565 88 Ave,Surrey,Restaurant,49.16401631,-122.87478148
5,SWOD-ALRRJG,Rosemary Heights Seniors Village (Assisted Living Kitchen),15240 34 Ave,Surrey,Restaurant,49.06355857,-122.80059383
6,SWOD-ALRRB2,Rosemary Heights Seniors Village (Main Kitchen),15240 34 Ave,Surrey,Restaurant,49.06355857,-122.80059383
7,SWOD-AJ6RHL,Rosie's Country Cafe,3033 King George Blvd,Surrey,Restaurant,49.0568465,-122.80812679
8,SHEN-9SZRRW,Rotary Field House,2197 148 St,Surrey,Restaurant,49.04038605,-122.81508576
9,KSMH-AK7R5Y,Round Table Pizza,12030 80 Ave,Surrey,Restaurant,49.14840143,-122.88916081
10,A017291    ,Royal Canadian Legion Branch #229,13525 106 Ave,Surrey,Restaurant,49.19557658,-122.84744918
11,GEDS-6VLPHA,Royal Canadian Legion Branch #229 (Upstairs Kitchen),13525 106 Ave,Surrey,Restaurant,49.19557658,-122.84744918
12,JCOE-67H9A4,Royal Canadian Legion Branch #240,2643 128 St,Surrey,Restaurant,49.05053022,-122.867608
13,A017877    ,Royal Canadian Legion Branch #6 Bar,17567 57 Ave,Surrey,Restaurant,49.10616789,-122.73640309
14,A016764    ,Royal Canadian Legion Branch #6 Kitchen,17567 57 Ave,Surrey,Restaurant,49.10616789,-122.73640309
15,SYOG-5M5482,Royal Canadian Legion Branch #8 - Lounge,2290 152 St,Surrey,Restaurant,49.04347012,-122.80094784
16,A018898    ,Royal Oak Pizza and Steak House,15336 Fraser Hwy,Surrey,Restaurant,49.16437477,-122.79765343
17,SHEN-A7LSB9,Royal Pacific Restaurant Ltd.,9190 120 St,Surrey,Restaurant,49.17022058,-122.88998595
18,SPLH-AAAUX2,Royal's Pizza,12837 88 Ave,Surrey,Restaurant,49.16276072,-122.86718741
19,GEDS-7FATXC,Ruben's Restaurant,15282 Fraser Hwy,Surrey,Restaurant,49.16501585,-122.79908865
20,GEDS-75PLQX,Rusty's Neighbourhood Pub,17770 56 Ave,Surrey,Restaurant,49.10255448,-122.73039151
21,SHEN-APFUB3,S & L Kitchen & Bar South Surrey,16051 24 Ave,Surrey,Restaurant,49.04582614,-122.77749261
22,GEDS-6DSQ6B,Sabai Thai Restaurant,10391 150 St,Surrey,Restaurant,49.19105767,-122.80663219
23,A020395    ,Sachdeva Sweets & Restaurant,7500 120 St,Surrey,Restaurant,49.13913715,-122.8900684
24,PNEL-8R2MJU,Saggi Sweet & Restaurant,7248 132 St,Surrey,Restaurant,49.13451113,-122.85640946
25,SWOD-AL5UUH,Sahota's Live Grill,7548 120 St,Surrey,Restaurant,49.13980911,-122.89000345
26,JDSO-ACHLL4,Saini Sweets & Restaurant,15988 Fraser Hwy,Surrey,Restaurant,49.15724844,-122.77953862
27,SHEN-A7GQWB,Saint Germain Bakery,10355 152 St,Surrey,Restaurant,49.19192585,-122.8042654
28,SWOD-AK9QKR,Saison,10153 King George Blvd,Surrey,Restaurant,49.18592247,-122.84584777
29,SDFO-8F2KW3,Sakuya Sushi,1593 128 St,Surrey,Restaurant,49.03101667,-122.86778837
30,HCAR-ATQPHX,Sal y Limon Mexican Cuisine,2428 160 St,Surrey,Restaurant,49.04648581,-122.77880546
31,SHEN-A28LV2,Salt & Pepper Restaurant,13767 72 Ave,Surrey,Restaurant,49.13376303,-122.83986765
32,SDFO-8KTTGY,Salty's Fish & Chips,17750 56 Ave,Surrey,Restaurant,49.10394114,-122.7304217
33,SPLH-9KKLS7,Salty's Fish And Chips,15953 Fraser Hwy,Surrey,Restaurant,49.15879416,-122.78014591
34,NDAA-9CCPX5,Sammy J's Grill & Bar,15770 Croydon Dr,Surrey,Restaurant,49.04654772,-122.78452527
35,A019048    ,Samz Neighborhood Pub,19580 56 Ave,Surrey,Restaurant,49.10422301,-122.68049445
36,GEDS-76KPVV,Sandar's Thai Garden Restaurant,7500 120 St,Surrey,Restaurant,49.13913715,-122.8900684
37,A020412    ,Sandcastle Bowl Bar & Grill,1938 152 St,Surrey,Restaurant,49.03724945,-122.8009197
38,A018007    ,Sangam Palace,11267 125A St,Surrey,Restaurant,49.2073838,-122.87468775
39,SPLH-ASUTSQ,Sanhao BBQ Delight,15138 100 Ave,Surrey,Restaurant,49.18398086,-122.80253015
40,GEDS-6NKTCW,Sanja Punjab Sweet House,12830 96 Ave,Surrey,Restaurant,49.17696905,-122.86709444
41,SHEN-A4MU79,Sapphire 2 Bistro Banquets,7500 120 St,Surrey,Restaurant,49.13913715,-122.8900684
42,SWOD-A35RCT,Sapporo Kitchen,1625 152 St,Surrey,Restaurant,49.03240001,-122.80169142
43,SWOD-AENN54,Sarpanch Sweets And Restaurant,14645 108 Ave,Surrey,Restaurant,49.19888287,-122.81641301
44,SWOD-9Z3M5P,Sashimi & Sushi Express,15277 100 Ave,Surrey,Restaurant,49.1844401,-122.79879019
45,SDFO-8FQQ94,Satnam Education Society of BC,10677 124 St,Surrey,Restaurant,49.19613704,-122.87891244
46,SWOD-AHBRRB,Satya Asha Fusion Bar & Restaurant,12818 72 Ave,Surrey,Restaurant,49.13371285,-122.86737908
47,NDAA-ALXNCC,Sauced Pizzas,3268 King George Blvd,Surrey,Restaurant,49.06108806,-122.81205645
48,A019543    ,Save On Foods #2207 - Deli,10312 King George Blvd,Surrey,Restaurant,49.18972695,-122.84488625
49,GEDS-6VZNPH,Save On Foods #2215 - Deli,17745 64 Ave,Surrey,Restaurant,49.11971809,-122.73192462
50,SWOD-A4ZPMN,Save On Foods #2215 Kitchen,17745 64 Ave,Surrey,Restaurant,49.11971809,-122.73192462
51,A019397    ,Save On Foods #2235 - Kitchen,1641 152 St,Surrey,Restaurant,49.0325256,-122.80168925
52,GEDS-7MKUBS,Save On Foods #2263 - Deli,18710 Fraser Hwy,Surrey,Restaurant,49.12422162,-122.70339163
53,A019791    ,Save On Foods #903 - Deli,3033 152 St,Surrey,Restaurant,49.05707032,-122.8020864
54,GEDS-79JU38,Save On Foods #910 - Deli,7320 King George Blvd,Surrey,Restaurant,49.13512719,-122.84513975
55,SHEN-9UJU2N,Save On Foods #918 - Kitchen,9014 152 St,Surrey,Restaurant,49.16697429,-122.79924081
56,GEDS-66S2CD,Save On Foods #939 - Deli,12130 Nordel Way,Surrey,Restaurant,49.16125226,-122.88603247
57,JRON-67B26M,Save On Foods #939 - Seafood Section,12130 Nordel Way,Surrey,Restaurant,49.16125226,-122.88603247
58,SDFO-8EUQ7N,Sawbuck's Pub,1626 152 St,Surrey,Restaurant,49.0316488,-122.80089611
59,SHEN-ABMQFG,Scott Hill Pizza,9380 120 St,Surrey,Restaurant,49.17352547,-122.88992003
60,NDAA-9R9MQD,Scott Hill Pizza,15154 Fraser Hwy,Surrey,Restaurant,49.16640004,-122.80266692
61,GEDS-6TSR35,Scott Hill Pizza (137th St),7330 137 St,Surrey,Restaurant,49.13602606,-122.84257911
62,SWOD-AQFQD7,Scott's 96 Pizza,15932 96 Ave,Surrey,Restaurant,49.17674494,-122.78081937
63,SWOD-A54NS4,Scott's Landing,14877 108 Ave,Surrey,Restaurant,49.19944932,-122.80927913
64,A018893    ,Scottsdale Lanes Snack/Lounge,12033 84 Ave,Surrey,Restaurant,49.15611731,-122.88898871
65,GEDS-6E8Q78,Seahorse Grill,12147 Sullivan St,Surrey,Restaurant,49.05601542,-122.8852786
66,SPLH-9SZQ3M,Second Cup - Store #9686,13750 96 Ave,Surrey,Restaurant,49.1768222,-122.84244062
67,SDFO-8MMLPS,Select Pizza,8434 120 St,Surrey,Restaurant,49.15659098,-122.89007953
68,ACAK-8XGPZ4,Select Pizza (72nd Ave),13633 72 Ave,Surrey,Restaurant,49.13373571,-122.84449695
69,ACAK-8HLT5U,Semiahmoo House Society,15306 24 Ave,Surrey,Restaurant,49.04543687,-122.79802571
70,A016809    ,Semiahmoo Secondary School,1785 148 St,Surrey,Restaurant,49.03511455,-122.81297114
71,SHEN-AGNMSP,Seniors Come Share Society Day Program for Adults,15355 102A Ave,Surrey,Restaurant,49.18894853,-122.79663936
72,NDAA-9RNU4U,Seoul Grill House,15155 101 Ave,Surrey,Restaurant,49.18629935,-122.80223401
73,A019043    ,Shagun Sweets (Surrey),8388 128 St,Surrey,Restaurant,49.15488649,-122.86770069
74,GEDS-6MQ252,Shakerz Show Lounge,10458 Whalley Blvd,Surrey,Restaurant,49.19268665,-122.84192208
75,SDFO-8KCLSD,Shannon Donair,17581 57 Ave,Surrey,Restaurant,49.10609837,-122.73536299
76,NDAA-9H4SAQ,Sharondale Lodge,17826 57 Ave,Surrey,Restaurant,49.10591655,-122.72876489
77,NDAA-APCPMF,Shawarma Palace,7218 King George Blvd,Surrey,Restaurant,49.1343323,-122.84521322
78,SHEN-AU2UNF,Sheila's Catering,2201 148 St,Surrey,Restaurant,49.04327446,-122.81479456
79,GEDS-66BRLC,Sheraton Vancouver Guildford Hotel - Fresh Lounge,15269 104 Ave,Surrey,Restaurant,49.19170882,-122.79884661
80,GEDS-66BRNT,Sheraton Vancouver Guildford Hotel - Fresh Restaurant,15269 104 Ave,Surrey,Restaurant,49.19170882,-122.79884661
81,NDAA-ALUPSA,Short & Sweet Patisserie and Bakery,16793 60 Ave,Surrey,Restaurant,49.11167704,-122.75748196
82,NDAA-APCP2Z,Showshaa,3020 152 St,Surrey,Restaurant,49.0572222,-122.80085018
83,GEDS-6732QE,Shree Sanata Dharam Sabha (Fiji) of BC,8473 124 St,Surrey,Restaurant,49.15709529,-122.87944944
84,SYOG-5M59W3,Shri Durga Mandir,7750 128 St,Surrey,Restaurant,49.14358109,-122.86765344
85,ACAK-8XKQ6L,Sikh Academy,12895 85 Ave,Surrey,Restaurant,49.15761124,-122.86500539
86,SHEN-9TZMQD,Silverspoon Pizza & Curry,12889 84 Ave,Surrey,Restaurant,49.15556846,-122.86572959
87,KSMH-ARNU8N,Sindbad,9627 128 St,Surrey,Restaurant,49.17775768,-122.86821562
88,SHEN-A7GU4C,Sky Zone Trampoline Park,11125 124 St,Surrey,Restaurant,49.20478745,-122.87898096
89,HCAR-ASNP97,Snowy Village (Surrey),10090 152 St,Surrey,Restaurant,49.18575463,-122.80058146
90,HCAR-AVPPMX,Sockeye Sushi,18818 68 Ave,Surrey,Restaurant,49.12601123,-122.70109667
91,SDFO-894RT6,Sodexo Food Services - Surrey Campus,12666 72 Ave,Surrey,Restaurant,49.13362169,-122.87132535
92,GEDS-7P929P,Sofi's Shawarma & Donairs,8928 152 St,Surrey,Restaurant,49.16516372,-122.80115648
93,SHEN-AP5NAA,Softball City Extra Innings - Sport & Grill,2201 148 St,Surrey,Restaurant,49.04327446,-122.81479456
94,SHEN-AP5NF6,Softball City Extra Innings - Time Out Concession,2201 148 St,Surrey,Restaurant,49.04327446,-122.81479456
95,GEDS-6XZP8T,Song Huong Vietnamese Restaurant,14667 108 Ave,Surrey,Restaurant,49.19887903,-122.81590389
96,SWOD-AHRVAL,Song's Snack Stop & Convenience Store,9613 192 St,Surrey,Restaurant,49.17736128,-122.69071803
97,GEDS-7R5P2M,Soo's Grocery,13980 108 Ave,Surrey,Restaurant,49.19866862,-122.83459774
98,NDAA-9QERMR,Sources Connection Cafe & Catering,14601 20 Ave,Surrey,Restaurant,49.03980925,-122.81862201
99,GEDS-7UDPRX,Sources Life Skills Resource Centre,12996 60 Ave,Surrey,Restaurant,49.11169934,-122.86225504
100,NDAA-9QJQ4J,Sources Women's Place,15318 20 Ave,Surrey,Restaurant,49.03817959,-122.79801683
101,A016829    ,South Surrey Ice Arena - Lower Concession,2199 148 St,Surrey,Restaurant,49.04156877,-122.81524429
102,A016828    ,South Surrey Ice Arena - Upper Concession,2199 148 St,Surrey,Restaurant,49.04156877,-122.81524429
103,NDAA-APCQAP,Spice 'N' Curry,18640 Fraser Hwy,Surrey,Restaurant,49.12546293,-122.70609458
104,SWOD-A5GVJT,Spice 72 Indian Restaurant & Lounge,12025 72 Ave,Surrey,Restaurant,49.13426727,-122.88969705
105,NDAA-9A7QNA,Spice Kings,15325 56 Ave,Surrey,Restaurant,49.10524442,-122.79842902
106,DMIL-96GQWF,Spice Meats,7028 120 St,Surrey,Restaurant,49.13087217,-122.89004487
107,JDSO-AEFNMX,Spice of Nepal,13486 72 Ave,Surrey,Restaurant,49.13339373,-122.84878949
108,SHEN-A79US9,Spice of Punjab Sweets & Restaurant,6350 120 St,Surrey,Restaurant,49.11815677,-122.8900634
109,SHEN-AKAW3E,Spicy Bowl Restaurant Inc,10725 King George Blvd,Surrey,Restaurant,49.19747121,-122.84569205
110,SWOD-AHPVGB,Spinhouse Cycling Studio,16041 24 Ave,Surrey,Restaurant,49.04630357,-122.77770572
111,NDAA-9GUMV3,Sportica's Excellent Ice - On Ice Grill,15000 54A Ave,Surrey,Restaurant,49.10157588,-122.80801841
112,NDAA-9GUN4K,Sportica's Excellent Ice - Snack Bar,15000 54A Ave,Surrey,Restaurant,49.10157588,-122.80801841
113,SYOG-5M55P6,St Bernadette Parish Hall,6555 132 St,Surrey,Restaurant,49.12138486,-122.85668239
114,A018350    ,Starbucks Coffee #139,17967 56 Ave,Surrey,Restaurant,49.10433763,-122.72502686
115,JCOE-67H9B8,Starbucks Coffee #142,1658 128 St,Surrey,Restaurant,49.03233639,-122.86726889
116,A019329    ,Starbucks Coffee #144,7380 King George Blvd,Surrey,Restaurant,49.13673593,-122.84521073
117,ACAK-8VGVCP,Starbucks Coffee #17256,17455 56 Ave,Surrey,Restaurant,49.10436862,-122.73959754
118,A017915    ,Starbucks Coffee #175,8898 152 St,Surrey,Restaurant,49.16465749,-122.80117032
119,NDAA-93TW5R,Starbucks Coffee #18290,15850 26 Ave,Surrey,Restaurant,49.04901067,-122.78305075
120,A016904    ,Starbucks Coffee #194,1730 152 St,Surrey,Restaurant,49.03340524,-122.80092717
121,NDAA-9BFS8W,Starbucks Coffee #19771,10355 152 St,Surrey,Restaurant,49.19192585,-122.8042654
122,NDAA-9NUQZV,Starbucks Coffee #22435,13737 96 Ave,Surrey,Restaurant,49.17720977,-122.84275097
123,SHEN-AMTPVU,Starbucks Coffee #29383,10385 120 St,Surrey,Restaurant,49.19157709,-122.89069274
124,SDFO-8EAUE3,Starbucks Coffee #4105,15941 Fraser Hwy,Surrey,Restaurant,49.15831657,-122.78059687
125,A019360    ,Starbucks Coffee #4255,10362 King George Blvd,Surrey,Restaurant,49.19096128,-122.84505611
126,A014724    ,Starbucks Coffee #4406,3061 152 St,Surrey,Restaurant,49.05755824,-122.80210265
127,GEDS-68T2FB,Starbucks Coffee #4468,10174 152 St,Surrey,Restaurant,49.18723165,-122.80063261
128,NDAA-9R8Q9Z,Starbucks Coffee #4473,10355 152 St,Surrey,Restaurant,49.19192585,-122.8042654
129,GEDS-6HQPVN,Starbucks Coffee #4593,2670 152 St,Surrey,Restaurant,49.05026809,-122.80093219
130,GEDS-6GTQ2V,Starbucks Coffee #4596,3278 King George Blvd,Surrey,Restaurant,49.06115882,-122.81215251
131,GEDS-6NLNUT,Starbucks Coffee #4620,18737 Fraser Hwy,Surrey,Restaurant,49.12463696,-122.70301653
132,GEDS-7D4VHM,Starbucks Coffee #4715,12830 96 Ave,Surrey,Restaurant,49.17696905,-122.86709444
133,GEDS-74DUWT,Starbucks Coffee #4775,6476 176 St,Surrey,Restaurant,49.12001039,-122.73457578
134,GEDS-77ZUHF,Starbucks Coffee #4811,15976 108 Ave,Surrey,Restaurant,49.19859349,-122.77942957
135,GEDS-7RRUYU,Starbucks Coffee #4865,2453 161A St,Surrey,Restaurant,49.04707987,-122.77611766
136,GEDS-7YSU36,Starbucks Coffee #4941,10153 King George Blvd,Surrey,Restaurant,49.18592247,-122.84584777
137,GEDS-7W7V3T,Starbucks Coffee #4976,12025 Nordel Way,Surrey,Restaurant,49.16237241,-122.8888952
138,NDAA-9P7SJ7,Starbucks Coffee Company #21565,9908 King George Blvd,Surrey,Restaurant,49.18334718,-122.84499471
139,KSMH-AQCM7G,Sticky's Candy Ocean Park,12885 16 Ave,Surrey,Restaurant,49.03150033,-122.86538278
140,GEDS-6M4MKD,Sub Garden #1,13482 72 Ave,Surrey,Restaurant,49.13339404,-122.84889395
141,GEDS-6HKMMM,Subway #10105,12842 96 Ave,Surrey,Restaurant,49.17696476,-122.86655037
142,GEDS-7E5PUV,Subway #10452,1797 152 St,Surrey,Restaurant,49.03448175,-122.80146488
143,A017403    ,Subway #10985,17700 56 Ave,Surrey,Restaurant,49.1038986,-122.73266352
144,A016854    ,Subway #11642,15551 Fraser Hwy,Surrey,Restaurant,49.16241879,-122.79125861
145,A016911    ,Subway #13302,10070 152 St,Surrey,Restaurant,49.18541427,-122.80059532
146,A017303    ,Subway #13542,1623 128 St,Surrey,Restaurant,49.03162785,-122.8677244
147,A017427    ,Subway #15577,7750 128 St,Surrey,Restaurant,49.14358109,-122.86765344
148,GEDS-6ZXNY3,Subway #17012,14806 108 Ave,Surrey,Restaurant,49.19856812,-122.81211474
149,A017856    ,Subway #22635,7550 King George Blvd,Surrey,Restaurant,49.13966312,-122.84525795
150,GEDS-6MFQTB,Subway #23526,18775 Fraser Hwy,Surrey,Restaurant,49.12479487,-122.7020931
151,NDAA-9C4RHK,Subway #26341,2990 152 St,Surrey,Restaurant,49.05622799,-122.80089259
152,GEDS-672V2W,Subway #27914,10392 King George Blvd,Surrey,Restaurant,49.19137558,-122.84509722
153,RORS-64MN7M,Subway #27963,6468 King George Blvd,Surrey,Restaurant,49.1202975,-122.84518062
154,GEDS-7E5SWY,Subway #28648,15976 108 Ave,Surrey,Restaurant,49.19859349,-122.77942957
155,GEDS-673PBP,Subway #30456,13578 88 Ave,Surrey,Restaurant,49.16252604,-122.847019
156,RORS-65WV39,Subway #32336,12355 Pattullo Pl,Surrey,Restaurant,49.20327931,-122.87979882
157,GEDS-6VYU4Q,Subway #33525,17755 64 Ave,Surrey,Restaurant,49.11895346,-122.73146436
158,LCAL-6TFNHK,Subway #34848,2255 King George Blvd,Surrey,Restaurant,49.04293235,-122.79076195
159,JDSO-AE8L4A,Subway #37799,3278 King George Blvd,Surrey,Restaurant,49.06115882,-122.81215251
160,GEDS-7LM26E,Subway #42292,2285 160 St,Surrey,Restaurant,49.04321227,-122.78006799
161,GEDS-7W4PCC,Subway #44714,8050 King George Blvd,Surrey,Restaurant,49.14889075,-122.84525499
162,SDFO-87ZM4C,Subway #47192,2725 192 St,Surrey,Restaurant,49.05220052,-122.69181883
163,SDFO-8HKPEW,Subway #50417,15905 Fraser Hwy,Surrey,Restaurant,49.15907102,-122.78175449
164,JDSO-ADTMFH,Subway #50726,14370 64 Ave,Surrey,Restaurant,49.11891376,-122.82421638
165,NDAA-8Y2SCD,Subway #52643,12477 88 Ave,Surrey,Restaurant,49.16395195,-122.8770559
166,NDAA-8PYQHK,Subway #52889,15122 72 Ave,Surrey,Restaurant,49.13351251,-122.8026091
167,NDAA-9MCRET,Subway #55162,14313 Crescent Rd,Surrey,Restaurant,49.06762733,-122.82500731
168,NDAA-93RQHM,Subway #55832,9538 120 St,Surrey,Restaurant,49.17636045,-122.88985808
169,ACAK-985U78,Subway #57253,13245 72 Ave,Surrey,Restaurant,49.13385503,-122.85542502
170,SPLH-9KKTA9,Subway #60205,2525 160 St,Surrey,Restaurant,49.04757106,-122.77952913
171,SPLH-9LFRR7,Subway #61612,7350 120 St,Surrey,Restaurant,49.13641534,-122.88850607
172,SWOD-9UKPY4,Subway #63408,13737 96 Ave,Surrey,Restaurant,49.17720977,-122.84275097
173,GEDS-67NPGB,Subway #7665,12080 Nordel Way,Surrey,Restaurant,49.16109806,-122.8886041
174,SWOD-AFPRZP,Subway #7752,13745 72 Ave,Surrey,Restaurant,49.13376451,-122.84112685
175,ACAK-9BETLP,Subway (Guildford Mall),10355 152 St,Surrey,Restaurant,49.19192585,-122.8042654
176,NDAA-9NUPG4,Subway Sandwiches,19186 96 Ave,Surrey,Restaurant,49.17680764,-122.69107293
177,GEDS-6TJMVF,Sullivan Heights Secondary School Food Service,6248 144 St,Surrey,Restaurant,49.11574585,-122.82294334
178,NDAA-ATHRDW,Sumerian Grill,10671A King George Blvd,Surrey,Restaurant,49.19632915,-122.84542729
179,GEDS-7UWVFC,Suncreek Village,13687 62 Ave,Surrey,Restaurant,49.115637,-122.84282495
180,SWOD-APTQFP,Suncrest Retirement Community,2567 King George Blvd,Surrey,Restaurant,49.04856106,-122.79778281
181,SHEN-AP5PP2,Sundae Delight,7750 128 St,Surrey,Restaurant,49.14358109,-122.86765344
182,GEDS-6L7TYA,Sunflower Organics & Deli,12310 Beecher St,Surrey,Restaurant,49.05290119,-122.88077647
183,HCAR-AWTMSA,Sunny Dragon Restaurant,15988 Fraser Hwy,Surrey,Restaurant,49.15724844,-122.77953862
184,A020313    ,Sunny's Clydesdale Inn Pub,17630 56 Ave,Surrey,Restaurant,49.10399668,-122.73409809
185,RORS-66F2E2,Sunnyside Manor Food Service,15340 17 Ave,Surrey,Restaurant,49.03280525,-122.79738127
186,SDFO-8P2P32,Sunrise Cafe,13458 107A Ave,Surrey,Restaurant,49.1971863,-122.849782
187,A016851    ,Sunshine Place Food Service,1504 160 St,Surrey,Restaurant,49.02933335,-122.77895105
188,NDAA-9NVPPU,Super Pho VN Cuisine,9544 120 St,Surrey,Restaurant,49.17643548,-122.88986366
189,ACAK-9C6MAB,Bon Accord Care Services Ltd,13350 Old Yale Rd,Surrey,Restaurant,49.18612305,-122.85260015
190,SWOD-A8TQQ4,Bon Ga Korean Restaurant,10356 Whalley Blvd,Surrey,Restaurant,49.19082227,-122.84171555
191,NDAA-9RFNPY,Bonny Castle Childrens Center,10706 148 St,Surrey,Restaurant,49.19706791,-122.81210468
192,A018373    ,Bonnycastle Montessori Day Care Food Service,14630 107A Ave,Surrey,Restaurant,49.19768616,-122.8170029
193,SHEN-ALTU9K,Boom Bee,15155 101 Ave,Surrey,Restaurant,49.18629935,-122.80223401
194,SHEN-A2FSZ2,Booster Juice #232,10153 King George Blvd,Surrey,Restaurant,49.18592247,-122.84584777
195,SHEN-9YTTFZ,Booster Juice #278,12080 Nordel Way,Surrey,Restaurant,49.16109806,-122.8886041
196,JDSO-ACVPWV,Booster Juice (Fraser Hwy),18640 Fraser Hwy,Surrey,Restaurant,49.12546293,-122.70609458
197,GEDS-78JP6B,Booster Juice (Surrey),15355 24 Ave,Surrey,Restaurant,49.04583671,-122.79750443
198,NDAA-8R8V4H,Boston Pizza #020,6486 176 St,Surrey,Restaurant,49.12017053,-122.73456085
199,SHEN-AKHSUG,Boston Pizza #18 - Nordel Way,12060 Nordel Way,Surrey,Restaurant,49.1617169,-122.88780373
200,SHEN-AAKQEF,Boston Pizza #59,15980 Fraser Hwy,Surrey,Restaurant,49.15829516,-122.78191619
201,A019248    ,Boston Pizza #61,15125 100 Ave,Surrey,Restaurant,49.18440821,-122.803407
202,A016601    ,Boston Pizza #62,1956 152 St,Surrey,Restaurant,49.03760224,-122.80095989
203,A020094    ,Boston Pizza #73,7488 King George Blvd,Surrey,Restaurant,49.13853724,-122.84525515
204,DMIL-AC3L9S,Boulevard Shelter,10677 Whalley Blvd,Surrey,Restaurant,49.19652835,-122.84266346
205,ACAK-9BEUV9,Bourbon Street Grill (Guildford),10355 152 St,Surrey,Restaurant,49.19192585,-122.8042654
206,SDFO-8NWMR4,Bowling Centre,5814 176A St,Surrey,Restaurant,49.10794053,-122.7334718
207,GEDS-6HPQAD,Bozzini's Restaurant (Surrey),13655 104 Ave,Surrey,Restaurant,49.19173246,-122.84373117
208,NDAA-9KDS9C,Branch 8 Canteen,2290 152 St,Surrey,Restaurant,49.04347012,-122.80094784
209,SWOD-A7W29Q,Branches Coffee House,1420 172 St,Surrey,Restaurant,49.02738135,-122.7421519
210,SDFO-8C524N,Bread Garden Catering,12117 86 Ave,Surrey,Restaurant,49.15976699,-122.8871212
211,SDFO-8MELM2,Breakthrough Lodge,2695 McBride Ave,Surrey,Restaurant,49.05179389,-122.88395292
212,GEDS-66JRRA,Brewster's Pub,7380 King George Blvd,Surrey,Restaurant,49.13673593,-122.84521073
213,ACAK-98UPSS,Bridgeview Community Centre,11475 126A St,Surrey,Restaurant,49.2114071,-122.87105494
214,A018023    ,Bridgeview Pizza,11267 125A St,Surrey,Restaurant,49.2073838,-122.87468775
215,NDAA-9PMT9A,Bright Path - Clayton Hills,7239 192 St,Surrey,Restaurant,49.13410743,-122.69113526
216,GEDS-7VFVD6,Brookside Lodge,19550 Fraser Hwy,Surrey,Restaurant,49.11414136,-122.68094401
217,SHEN-A82PUK,Bros BBQ,13652 Grosvenor Rd,Surrey,Restaurant,49.19979671,-122.84378169
218,SWOD-A4NQL4,Browns Socialhouse (Guildford),15146 100 Ave,Surrey,Restaurant,49.18396932,-122.80224523
219,SPLH-A9VTH3,Browns Socialhouse (Surrey Centre),9666 King George Blvd,Surrey,Restaurant,49.1787182,-122.84525863
220,NDAA-9E4S4N,Browns Socialhouse Semiahmoo,1601 152 St,Surrey,Restaurant,49.03116992,-122.80130881
221,A013601    ,Brownsville Bar Marine Pub,11940 Old Yale Rd,Surrey,Restaurant,49.20355939,-122.89170267
222,SDFO-8MYVG8,Bubble 88,10209 King George Blvd,Surrey,Restaurant,49.188066,-122.84605925
223,SHEN-AP8QHC,Bubble Waffle Cafe (Surrey),10090 152 St,Surrey,Restaurant,49.18575463,-122.80058146
224,GEDS-69FS3G,Bubble World (Surrey),10090 152 St,Surrey,Restaurant,49.18575463,-122.80058146
225,GEDS-7BLPWS,Bucky's West Coast Pizzeria,15562 24 Ave,Surrey,Restaurant,49.04542515,-122.79137674
226,NDAA-9CKQAH,Burger King #03341,10344 King George Blvd,Surrey,Restaurant,49.19041518,-122.84507046
227,A016919    ,Burger King #08302,7488 King George Blvd,Surrey,Restaurant,49.13853724,-122.84525515
228,GEDS-6S3UVB,Burger King #15397,12525 88 Ave,Surrey,Restaurant,49.16333834,-122.87572905
229,PNEL-8R5UF2,Burger King #18301,10153 King George Hwy,Surrey,Restaurant,49.18592247,-122.84584777
230,PNEL-8Q9REB,Burger King #18332,10355 120 St,Surrey,Restaurant,49.19095424,-122.89075692
231,SHEN-9PQSQD,Buy-Low Foods #080072 - Bakery/Deli,14865 108 Ave,Surrey,Restaurant,49.19944197,-122.809511
232,SPLH-ASQTDV,C-Lovers Fish and Chips (South Surrey),2655 King George Blvd,Surrey,Restaurant,49.05031497,-122.79990787
233,SHEN-A79QF4,Cabizerra Bistro,14775 108 Ave,Surrey,Restaurant,49.19888515,-122.813407
234,GEDS-6X9W53,Cactus Club Cafe (South Point),15079 32 Ave,Surrey,Restaurant,49.06028082,-122.80492472
235,SDFO-8MLMNB,Cafe Central,10350 University Dr,Surrey,Restaurant,49.19066593,-122.84946025
236,NDAA-9R8NDB,Cafe Central (Surrey Leisure Complex),16555 Fraser Hwy,Surrey,Restaurant,49.15194416,-122.76410396
237,ACAK-8VHNXU,Cafe Madras,8381 128 St,Surrey,Restaurant,49.15512434,-122.86935706
238,SHEN-ALXT55,Cafe Nelly,13401 108 Ave,Surrey,Restaurant,49.1990937,-122.85025486
239,SDFO-8MXMMA,Calgary Sweets,7928 128 St,Surrey,Restaurant,49.14675376,-122.86766512
240,GEDS-7X3VKR,Calvary Christian Church,16293 104 Ave,Surrey,Restaurant,49.19200637,-122.77081733
241,GEDS-66ZW24,Calypso Foods,8322 130 St,Surrey,Restaurant,49.15374911,-122.86203637
242,SWOD-9X7QKV,Camy's Pizza,12849 96 Ave,Surrey,Restaurant,49.1773134,-122.86594137
243,ACAK-9CALHP,Canada Safeway #1 - Snack Bar & Deli,10355 King George Blvd,Surrey,Restaurant,49.19071922,-122.84579893
244,ACAK-9CALNC,Canada Safeway #1 - Starbucks Coffee,10355 King George Blvd,Surrey,Restaurant,49.19071922,-122.84579893
245,ACAK-9CANVB,Canada Safeway #109 - Deli,12825 16 Ave,Surrey,Restaurant,49.03148969,-122.86670337
246,ACAK-9CAP6G,Canada Safeway #184 - Deli,7165 138 St,Surrey,Restaurant,49.13282901,-122.83916029
247,ACAK-9CAP73,Canada Safeway #184 - Starbucks Coffee,7165 138 St,Surrey,Restaurant,49.13282901,-122.83916029
248,ACAK-9CAMG4,Canada Safeway #47 - China Kitchen,15355 24 Ave,Surrey,Restaurant,49.04583671,-122.79750443
249,ACAK-9CAME9,Canada Safeway #47 - Deli,15355 24 Ave,Surrey,Restaurant,49.04583671,-122.79750443
250,ACAK-9CAMF5,Canada Safeway #47 - Starbucks Coffee,15355 24 Ave,Surrey,Restaurant,49.04583671,-122.79750443
251,ACAK-9CAMPV,Canada Safeway #62 - Deli,8870 152 St,Surrey,Restaurant,49.16332387,-122.80119131
252,ACAK-9CAMQN,Canada Safeway #62 - Starbucks Coffee,8870 152 St,Surrey,Restaurant,49.16332387,-122.80119131
253,ACAK-9CAMVN,Canada Safeway #92 - Deli,7450 120 St,Surrey,Restaurant,49.13826544,-122.89002096
254,ACAK-9CAMWJ,Canada Safeway #92 - Starbucks Coffee,7450 120 St,Surrey,Restaurant,49.13826544,-122.89002096
255,A019458    ,Canadian 2 For 1 Pizza (152nd St),10070 152 St,Surrey,Restaurant,49.18541427,-122.80059532
256,GEDS-6ZNPG3,Canadian 2 For 1 Pizza (72nd Ave),13791 72 Ave,Surrey,Restaurant,49.13426936,-122.83906049
257,GEDS-5Z6MPG,Canadian Singh Sabha Gurdwara Society,8115 132 St,Surrey,Restaurant,49.15020581,-122.85711154
258,SHEN-A3JU7Q,Canuel Caterers,2656 160 St,Surrey,Restaurant,49.05006748,-122.77859997
259,PNEL-8QKN49,Canuel Caterers - Agriplex,6050A 176 St,Surrey,Restaurant,49.11225879,-122.73472819
260,PNEL-8QKN34,Canuel Caterers - Shannon Hall,6050A 176 St,Surrey,Restaurant,49.11225879,-122.73472819
261,PNEL-8QKMYB,Canuel Caterers - Show Barn,6050A 176 St,Surrey,Restaurant,49.11225879,-122.73472819
262,PNEL-8QKN5F,Canuel Caterers - Stetson Bowl,6050A 176 St,Surrey,Restaurant,49.11225879,-122.73472819
263,SWOD-AHFN3G,Captain Meat & Poultry Ltd (72nd Ave),13753 72 Ave,Surrey,Restaurant,49.13377078,-122.84058109
264,GEDS-7CVR6H,CareLife Fleetwood - Food Service,8265 159 St,Surrey,Restaurant,49.15269221,-122.78202227
265,ACAK-98ULJQ,Caribbean Spoon,6820 188 St,Surrey,Restaurant,49.1266045,-122.70143301
266,SHEN-A6LW3S,Carl's Jr. Restaurants,10355 152 St,Surrey,Restaurant,49.19192585,-122.8042654
267,HCAR-AUFQDK,Casa Mia Cafe,9172 120 St,Surrey,Restaurant,49.16998256,-122.8899906
268,HCAR-ATQP7E,Castro's Tacos,13646 Grosvenor Rd,Surrey,Restaurant,49.19962849,-122.84402627
269,NDAA-8WQS48,Catering Visions,13375 115 Ave,Surrey,Restaurant,49.21175112,-122.85178846
270,A013627    ,Cedar Grove Child Development Centre Food Service,10330 144 St,Surrey,Restaurant,49.19047368,-122.82282352
271,SPLH-9P8MJG,CEFA - Fleetwood,16050 Fraser Hwy,Surrey,Restaurant,49.15664752,-122.77745304
272,NDAA-9QXQR7,Cefa Early Learning,5446 152 St,Surrey,Restaurant,49.10133068,-122.80073673
273,NDAA-9E9SK8,Cefa Guildford,10172 152A St,Surrey,Restaurant,49.18732171,-122.7992571
274,NDAA-AC7QX3,CEFA South Surrey/Morgan Crossing,15355 24 Ave,Surrey,Restaurant,49.04583671,-122.79750443
275,GEDS-65BNJH,Celebration & Rainbow Manor Food Service,10130 159A St,Surrey,Restaurant,49.18640578,-122.77991666
276,GEDS-66KMAS,Central City Brewing Company,13450 102 Ave,Surrey,Restaurant,49.18791904,-122.84876653
277,NDAA-ATHQYX,Centric Culinary Inc,18394 Fraser Hwy,Surrey,Restaurant,49.1287315,-122.71321455
278,SHEN-9Z5V5E,Chaba Thai Restaurant,5723 176 St,Surrey,Restaurant,49.10638755,-122.73519222
279,SHEN-9YTPMB,Chan's Kitchen,15277 100 Ave,Surrey,Restaurant,49.1844401,-122.79879019
280,SHEN-9W7N2C,Charcoal & Woodz,17530 64 Ave,Surrey,Restaurant,49.11854087,-122.73720867
281,GEDS-84RSPW,Charley's Philly Steaks,10153 King George Blvd,Surrey,Restaurant,49.18592247,-122.84584777
282,SHEN-A63NQL,Chatime,10255 King George Blvd,Surrey,Restaurant,49.18915003,-122.84575001
283,SPLH-AUXP4D,Cheema Bros Meat Shop,12477 88 Ave,Surrey,Restaurant,49.16395195,-122.8770559
284,ACAK-8WDT8J,Chef's Kebab Restaurant,16225 Fraser Hwy,Surrey,Restaurant,49.15490374,-122.77200069
285,SWOD-A57QHG,Chefe Daniel Restaurant,13620 80 Ave,Surrey,Restaurant,49.14801946,-122.84506883
286,A019554    ,Cherington Place Food Service,13453 111A Ave,Surrey,Restaurant,49.20548586,-122.84929835
287,NDAA-9EWU8F,Chili House Restaurant,19571 Fraser Hwy,Surrey,Restaurant,49.11450481,-122.68063504
288,SWOD-APMV26,Chilies Thai Restaurant,8077 King George Blvd,Surrey,Restaurant,49.1494583,-122.8460133
289,A019021    ,China Village Wonton House,9644 King George Blvd,Surrey,Restaurant,49.17776025,-122.84529704
290,SHEN-A7LVFF,Chipotle Mexican Grill,10355 152 St,Surrey,Restaurant,49.19192585,-122.8042654
291,GEDS-5Y7VCY,Choice Billiards & Cafe,7728 128 St,Surrey,Restaurant,49.1427663,-122.86766933
292,GEDS-6GMR6P,Choices Market - Deli,3248 King George Blvd,Surrey,Restaurant,49.06103122,-122.81198806
293,SHEN-A6QNHL,Chongqing Restaurant,8220 120 St,Surrey,Restaurant,49.15256867,-122.89004467
294,SPLH-9N6RN7,Chopped Leaf,15775 Croydon Dr,Surrey,Restaurant,49.04768716,-122.78492695
295,KSMH-AU6VQG,Chopped Leaf,9900 King George Hwy,Surrey,Restaurant,49.18235922,-122.84490698
296,A018928    ,Chrysalis 22 Food Service,14122 113 Ave,Surrey,Restaurant,49.20750257,-122.83098214
297,A018912    ,Chrysalis 24 Food Service,14124 113 Ave,Surrey,Restaurant,49.20750257,-122.83098214
298,SPLH-98CNQM,Chui Hong Korean Chinese Restaurant,15976 108 Ave,Surrey,Restaurant,49.19859349,-122.77942957
299,A016526    ,Church's Chicken #1715,10542 King George Blvd,Surrey,Restaurant,49.19418298,-122.84498766
300,A013656    ,Church's Chicken #3630,8434 120 St,Surrey,Restaurant,49.15659098,-122.89007953
301,A017564    ,Church's Chicken #4475,14877 108 Ave,Surrey,Restaurant,49.19944932,-122.80927913
302,A018178    ,Church's Chicken #5621,15318 Fraser Hwy,Surrey,Restaurant,49.16467278,-122.79828012
303,GEDS-65QN9E,Cineplex Odeon,12161 72 Ave,Surrey,Restaurant,49.13501244,-122.88650119
304,SPLH-9KKNN4,Cinnzeo,10355 152 St,Surrey,Restaurant,49.19192585,-122.8042654
305,SHEN-9T5QBB,Citrus Bar & Grill,10410 158 St,Surrey,Restaurant,49.19204926,-122.7839164
306,SHEN-ATTR6G,City Centre Pizza Factory,10470 King George Blvd,Surrey,Restaurant,49.19289827,-122.84505798
307,A017441    ,Classic OP Pizza,3189 King George Blvd,Surrey,Restaurant,49.05963853,-122.81161686
308,SHEN-AP8PQH,Clayton Gate Pizza,6820 188 St,Surrey,Restaurant,49.1266045,-122.70143301
309,A017685    ,Clayton Heights Secondary School Cafeteria,7003 188 St,Surrey,Restaurant,49.12921586,-122.70191415
310,ACAK-99FQMH,Clover Heights Retirement Home,6209 184 St,Surrey,Restaurant,49.11514003,-122.71285117
311,A017390    ,Clover Hill Market,5996 184 St,Surrey,Restaurant,49.11122362,-122.71237248
312,GEDS-7ANM86,Clover Ridge Pizza,5989 168 St,Surrey,Restaurant,49.11117004,-122.75683844
313,A016814    ,Cloverdale Bakery,5780 176A St,Surrey,Restaurant,49.10748286,-122.73348836
314,SWOD-9UHPGQ,Cloverdale Coffee Co,5674 176 St,Surrey,Restaurant,49.10547949,-122.73476794
315,SDFO-8LUUGU,Cloverdale Country Farms - Deli,5688 168 St,Surrey,Restaurant,49.10517451,-122.75619765
316,A016586    ,Cloverdale Ice Arena,6090 176 St,Surrey,Restaurant,49.11322319,-122.73436566
317,NDAA-9YLSGB,Cloverdale Minor Softball Association Concession #2,6330 168 St,Surrey,Restaurant,49.11721874,-122.75643514
318,SDFO-8GRKRZ,Cloverdale Recreation Centre,6188 176 St,Surrey,Restaurant,49.11519194,-122.73446036
319,A018157    ,Coast & Country Diner,17608 56 Ave,Surrey,Restaurant,49.10399109,-122.73468052
320,ACAK-97WNC9,COBS Bread,12857 16 Ave,Surrey,Restaurant,49.03150395,-122.86585053
321,NDAA-9QMNYX,COBS Bread #9030,1711 152 St,Surrey,Restaurant,49.0331143,-122.80166897
322,KHON-6RKPB6,COBS Bread (152nd St),2990 152 St,Surrey,Restaurant,49.05622799,-122.80089259
323,SDFO-88VM3L,COBS Bread (Fraser Hwy),18775 Fraser Hwy,Surrey,Restaurant,49.12479487,-122.7020931
324,KSMH-ARJTF9,COBS Bread (Guildford Town Centre),10355 152 St,Surrey,Restaurant,49.19192585,-122.8042654
325,HCAR-AW6UF4,CoCo Fresh Tea & Juice,10355 152 St,Surrey,Restaurant,49.19192585,-122.8042654
326,SHEN-AP8QAU,Coffee Monster,15285 101 Ave,Surrey,Restaurant,49.18638766,-122.79867467
327,A019462    ,Come Share Centre (26th Ave),15008 26 Ave,Surrey,Restaurant,49.04891781,-122.80419909
328,A020331    ,Come Share Centre (68th Ave),13855 68 Ave,Surrey,Restaurant,49.12674536,-122.83893841
329,GEDS-66K2CZ,Community Access-Arcus Community Resources Food Service,12388 Pattullo Pl,Surrey,Restaurant,49.20246838,-122.87986064
330,SDFO-896MB7,Contracted Food Service Provider,5500 180 St,Surrey,Restaurant,49.10172376,-122.72353775
331,SHEN-APFUUQ,Cooking Secret Restaurant,2982 152 St,Surrey,Restaurant,49.05569682,-122.80090882
332,SHEN-ABJUB9,Corner Cafe,19415 56 Ave,Surrey,Restaurant,49.10463067,-122.68521544
333,SDFO-8L4T27,Corporate Classic Caterers,14033 92 Ave,Surrey,Restaurant,49.17027007,-122.83238285
334,JDSO-ACMLL6,Corporate Classic Caterers (Nav Canada),7421 135 St,Surrey,Restaurant,49.13725773,-122.84865173
335,SWOD-A58ML4,Corporate Classics Caterers,14123 92 Ave,Surrey,Restaurant,49.1702696,-122.83101089
336,GEDS-6N4UKL,Costco Wholesale (Surrey) Snack Bar,7423 King George Blvd,Surrey,Restaurant,49.13844942,-122.84597685
337,SHEN-APFPYJ,Cranked,16780 64 Ave,Surrey,Restaurant,49.11868842,-122.75753449
338,GEDS-858UK4,Cranked Sports Supplements,7130 120 St,Surrey,Restaurant,49.13256483,-122.88946309
339,NDAA-ALQN84,Crawford Manor,10010 128 St,Surrey,Restaurant,49.18468154,-122.86738782
340,GEDS-72NPVF,Creekside Withdrawal Management Centre,13740 94A Ave,Surrey,Restaurant,49.17451181,-122.84205001
341,A017534    ,Crescent Beach Bistro,12251 Beecher St,Surrey,Restaurant,49.05283008,-122.88240408
342,A016603    ,Crescent Beach Yacht Club,12555 Crescent Rd,Surrey,Restaurant,49.05628746,-122.87133071
343,GEDS-78FNZB,Crescent Coffee House,12219 Beecher St,Surrey,Restaurant,49.05263184,-122.88326666
344,GEDS-6E3N2T,Crescent Gardens Food Service,1222 King George Blvd,Surrey,Restaurant,49.02445374,-122.76678998
345,SPLH-A9UTKA,Crescent Harbour House Restaurant,12233 Beecher St,Surrey,Restaurant,49.05269948,-122.88304641
346,SYOG-5M59J9,CRESST South Fraser,13525 98 Ave,Surrey,Restaurant,49.1806863,-122.84761777
347,SPLH-987TB4,Crispy Falafel (Surrey),2408 King George Blvd,Surrey,Restaurant,49.04586836,-122.79332917
348,GEDS-83VU7U,Crown Palace Banquet Hall,12025 Nordel Way,Surrey,Restaurant,49.16237241,-122.8888952
349,A018956    ,Croydon Villa Food Service,2828 Croydon Dr,Surrey,Restaurant,49.05339555,-122.79319728
350,HCAR-AVKSJF,Crustos Pizza & Wings,8910 120 St,Surrey,Restaurant,49.16515223,-122.89006953
351,SHEN-A85RZ3,Crystal Ball Room/Crystal Banquet Hall,12888 80 Ave,Surrey,Restaurant,49.14799486,-122.86604834
352,SPLH-987TJ5,Cuatro Coffee,9014 152 St,Surrey,Restaurant,49.16697429,-122.79924081
353,GEDS-6ZHTCN,Cuisine and Company,3487 King George Blvd,Surrey,Restaurant,49.06520259,-122.8184368
354,NDAA-9KHSD9,Cultive Frozen Yogurt,2940 King George Blvd,Surrey,Restaurant,49.05558062,-122.80546001
355,NDAA-9B2SJL,Cultures,10153 King George Blvd,Surrey,Restaurant,49.18592247,-122.84584777
356,SHEN-9ZGSYW,Cupcakes (Surrey),10355 152 St,Surrey,Restaurant,49.19192585,-122.8042654
357,NDAA-9QSVRT,Cupcakes by Heather and Lori,2438 160 St,Surrey,Restaurant,49.04681178,-122.77880291
358,SHEN-A7GVK6,Curry & Kabab Indian Cuisine,7500 120 St,Surrey,Restaurant,49.13913715,-122.8900684
359,NDAA-9H3PTE,Curry Indian Cuisine,10355 152 St,Surrey,Restaurant,49.19192585,-122.8042654
360,ACAK-8XGSPG,Curry Sensation Indian Restaurant,2828 152 St,Surrey,Restaurant,49.05326246,-122.80090544
361,GEDS-7ELNSQ,Czorny Alzheimer Centre - Main Kitchen,16850 66 Ave,Surrey,Restaurant,49.12241117,-122.75508657
362,A019953    ,D-Plus Pizza (152nd Ave),9547 152 St,Surrey,Restaurant,49.17590414,-122.80128332
363,MARO-AWUQ2U,D-Plus Pizza (192nd St),7228 192 St,Surrey,Restaurant,49.13415694,-122.69047175
364,GEDS-5Z5PM3,D-Plus Pizza (88th Ave),13588 88 Ave,Surrey,Restaurant,49.16252802,-122.84686461
365,SDFO-8ESVZE,D-Plus Pizza (Fraser Hwy),15933 Fraser Hwy,Surrey,Restaurant,49.15909621,-122.78079001
366,ACAK-8UASYF,D-Plus Pizza (King George Blvd),10207 King George Blvd,Surrey,Restaurant,49.18799242,-122.8460614
367,GEDS-66RRQQ,Dad's Bistro,12411 King George Blvd,Surrey,Restaurant,49.20660045,-122.87798388
368,JDSO-ACANKX,Dad's Donair & Specialty Foods,15989 108 Ave,Surrey,Restaurant,49.19896015,-122.77929824
369,SPLH-9P7SUH,Dae-Ji,15940 Fraser Hwy,Surrey,Restaurant,49.15704507,-122.78096494
370,GEDS-7WDP3L,Dairy Queen #26978,14741 108 Ave,Surrey,Restaurant,49.19889005,-122.81387986
371,A019545    ,Dairy Queen #27001,9436 King George Blvd,Surrey,Restaurant,49.17441007,-122.84552392
372,A017823    ,Dairy Queen #27109,7115 138 St,Surrey,Restaurant,49.1320397,-122.83918107
373,ACAK-8VATBP,Dairy Queen #27172,9110 152 St,Surrey,Restaurant,49.16855491,-122.80106785
374,GEDS-7BJQJ5,Dairy Queen #27173,2071 152 St,Surrey,Restaurant,49.03961998,-122.80145099
375,GEDS-744NQ8,Dairy Queen #27268,17720 56 Ave,Surrey,Restaurant,49.10399592,-122.73182925
376,GEDS-7VRLJL,Dairy Queen #27348,5630 152 St,Surrey,Restaurant,49.10523388,-122.80044714
377,NDAA-9BHSZE,Dairy Queen Treat Centre Guildford,10355 152 St,Surrey,Restaurant,49.19192585,-122.8042654
378,SWOD-AFPMMZ,Dana Hospitality-Life Labs (Surrey),7455 130 St,Surrey,Restaurant,49.13852906,-122.86201728
379,A017345    ,Danica's Bistro,1959 152 St,Surrey,Restaurant,49.03727504,-122.80146689
380,SHEN-AGNP8P,Darbar Sri Guru Granth Sahibji Surrey,8820 168 St,Surrey,Restaurant,49.16347571,-122.75631461
381,SHEN-ABYQX2,Dasarang Chicken,10320 152 St,Surrey,Restaurant,49.19010913,-122.80059715
382,SWOD-APPTA7,Dashiwa Sushi Japanese Restaurant,6351 152 St,Surrey,Restaurant,49.11798242,-122.80127608
383,SWOD-9YXP6Z,Davids Tea (Morgan Crossing),15755 Croydon Dr,Surrey,Restaurant,49.04581558,-122.78293616
384,SWOD-AHBPCH,Dawood's Meat & Pizzaria,14620 64 Ave,Surrey,Restaurant,49.11892615,-122.81709905
385,SHEN-AGKN8N,DBD Food Services,5337 180 St,Surrey,Restaurant,49.09979624,-122.72419535
386,NDAA-9ENPGX,DDDN Pizza,16033 108 Ave,Surrey,Restaurant,49.1989669,-122.77775438
387,SPLH-9KJPHF,De Dutch #10,2433 161A St,Surrey,Restaurant,49.04668069,-122.77530164
388,GEDS-74ZNBL,De Dutch Pannekoek House #22,5630 176 St,Surrey,Restaurant,49.10466194,-122.73475791
389,A019941    ,De Dutch Pannekoek House #25,7310 120 St,Surrey,Restaurant,49.1357896,-122.89000833
390,LCAL-7FFQXD,De Dutch Pannekoek House (Fraser Hwy),15235 Fraser Hwy,Surrey,Restaurant,49.16586259,-122.80028219
391,A019364    ,Delitalia Fine Foods,1629 128 St,Surrey,Restaurant,49.03178116,-122.86773823
392,A020396    ,Dell Lanes,10576 King George Blvd,Surrey,Restaurant,49.1952329,-122.84492543
393,A019000    ,Delrios,1669 128 St,Surrey,Restaurant,49.03263244,-122.86780099
394,A019749    ,Delta Pizza,12921 84 Ave,Surrey,Restaurant,49.15557656,-122.86452158
395,SWOD-AHRUPK,Deluxe Noodle House,19255 Fraser Hwy,Surrey,Restaurant,49.11894729,-122.68943107
396,SHEN-AP5QBH,Denji Japanese Restaurant,6820 188 St,Surrey,Restaurant,49.1266045,-122.70143301
397,NDAA-A9ZQH8,Denny's Restaurant #9300,6850 King George Blvd,Surrey,Restaurant,49.12727733,-122.84516987
398,HCAR-ASQMHF,Desi Bites Restaurants,12877 80 Ave,Surrey,Restaurant,49.14842952,-122.86514353
399,DMIL-92PTGQ,Dhaliwal Bakery,12824 Anvil Way,Surrey,Restaurant,49.14451548,-122.86726053
400,GEDS-68RU3A,Dhaliwal Banquet Hall,8166 128 St,Surrey,Restaurant,49.15130553,-122.86739367
401,A019805    ,Dhaliwal Sweets Ltd,8430 128 St,Surrey,Restaurant,49.15584278,-122.86769842
402,A018261    ,Dhoom Restaurant & Bar,7938 128 St,Surrey,Restaurant,49.14687516,-122.86577071
403,SDFO-8MXQXX,Di Reggae Cafe,13593 King George Blvd,Surrey,Restaurant,49.19931401,-122.84556469
404,NDAA-9DNQLJ,Diamond Sweets & Restaurant,7228 192 St,Surrey,Restaurant,49.13415694,-122.69047175
405,SDFO-8G4L6D,Diamond Sweets and Restaurant,15933 Fraser Hwy,Surrey,Restaurant,49.15909621,-122.78079001
406,SNOE-AE2SZG,Divine Delicacies,13483 78 Ave,Surrey,Restaurant,49.14465398,-122.84850041
407,NDAA-92MTDP,Domino's Pizza #10024,19475 Fraser Hwy,Surrey,Restaurant,49.11542665,-122.68277875
408,GEDS-6TSPYU,Domino's Pizza #10027,10346 Whalley Blvd,Surrey,Restaurant,49.19068709,-122.84170662
409,HCAR-ATHRE5,Domino's Pizza #10063,9450 120 St,Surrey,Restaurant,49.17459759,-122.88900451
410,NDAA-9PPT45,Domino's Pizza #10085,13391 72 Ave,Surrey,Restaurant,49.13381399,-122.85191173
411,NDAA-94NRF7,Domino's Pizza #10088,2389 King George Blvd,Surrey,Restaurant,49.04498218,-122.79437051
412,HCAR-AWLS36,Don Asian Kitchen,2181 160 St,Surrey,Restaurant,49.04158125,-122.77956356
413,SHEN-9YPQN6,Don Chepe's Restaurant,13780 104 Ave,Surrey,Restaurant,49.19140671,-122.8405099
414,SHEN-9SSP8G,Donair Affair,12080 Nordel Way,Surrey,Restaurant,49.16109806,-122.8886041
415,JDSO-AD4M9J,Donair Affair,14350 64 Ave,Surrey,Restaurant,49.11891915,-122.82462973
416,RORS-63QTKM,Donair Affair (Surrey),10786 148 St,Surrey,Restaurant,49.19809906,-122.81225654
417,SWOD-9XJUAY,Donegal's Pub,12054 96 Ave,Surrey,Restaurant,49.17699459,-122.88759089
418,GLAE-9WERHV,Doni Korean Restaurant,10592 King George Blvd,Surrey,Restaurant,49.19548888,-122.84419132
419,ACAK-96MQ4H,Dragon Lounge,17755 60 Ave,Surrey,Restaurant,49.11171557,-122.72963312
420,GEDS-69UQZB,Dragon Village Restaurant,5678 176 St,Surrey,Restaurant,49.10561084,-122.73476688
421,NDAA-8WZLHY,Dragon's Chop Suey House,16055 Fraser Hwy,Surrey,Restaurant,49.1569391,-122.77710268
422,GEDS-6XLQY8,Dublin Crossing Irish Pub,18789 Fraser Hwy,Surrey,Restaurant,49.12428644,-122.70225806
423,A020308    ,Eagle Quest Golf Centers Creekside Grill,7778 152 St,Surrey,Restaurant,49.14390528,-122.80072227
424,A019772    ,Eagle Quest Golf Centers Main Banquet Kitchen,7778 152 St,Surrey,Restaurant,49.14390528,-122.80072227
425,A020375    ,Earl Marriott Secondary School Food Service,15751 16 Ave,Surrey,Restaurant,49.03126025,-122.78544102
426,GEDS-6ACQMD,Earl's Guildford,10160 152 St,Surrey,Restaurant,49.18699498,-122.80051348
427,NDAA-9RPTJE,East West Fusion Kitchen,12043 88 Ave,Surrey,Restaurant,49.16338853,-122.88908594
428,NDAA-A9KPX4,Easy Grill,10355 152 St,Surrey,Restaurant,49.19192585,-122.8042654
429,NDAA-95LSNV,Edith and Arthur Public House,8410 160 St,Surrey,Restaurant,49.1556693,-122.77858695
430,NDAA-9QTQG2,Edo Japan,10355 152 St,Surrey,Restaurant,49.19192585,-122.8042654
431,ACAK-96MPZY,Elements Casino - Diamond Buffet,17755 60 Ave,Surrey,Restaurant,49.11171557,-122.72963312
432,ACAK-96MPND,Elements Casino - Foodies,17755 60 Ave,Surrey,Restaurant,49.11171557,-122.72963312
433,A017781    ,Elements Casino - Homestretch,17755 60 Ave,Surrey,Restaurant,49.11171557,-122.72963312
434,ACAK-96MQ7L,Elements Casino - Main Kitchen,17755 60 Ave,Surrey,Restaurant,49.11171557,-122.72963312
435,NDAA-A6USGM,Elements Casino - Molson Canadian Lounge,17755 60 Ave,Surrey,Restaurant,49.11171557,-122.72963312
436,ACAK-96MPWQ,Elements Casino - Poker Room,17755 60 Ave,Surrey,Restaurant,49.11171557,-122.72963312
437,A018637    ,Elena's Country Kitchen,5630 176 St,Surrey,Restaurant,49.10466194,-122.73475791
438,PNEL-8QKM26,Elevation Fitness,15110 54A Ave,Surrey,Restaurant,49.10151119,-122.80270892
439,RORS-5UYPM9,Elgin Park Secondary School Cafeteria,13484 24 Ave,Surrey,Restaurant,49.04555246,-122.84858872
440,GEDS-6G2STZ,Elim Village - The Emerald Food Service,9080 158 St,Surrey,Restaurant,49.16792415,-122.78434432
441,SDFO-88VT2K,Elisabeth's Chalet Restaurant,17785 56 Ave,Surrey,Restaurant,49.1042963,-122.72986665
442,SHEN-AASVAD,Elvis Pizza,14916 104 Ave,Surrey,Restaurant,49.19133805,-122.80824716
443,A013790    ,Enver Creek Secondary School Cafeteria,14505 84 Ave,Surrey,Restaurant,49.15582818,-122.8202501
444,GEDS-6N4RWE,Espresso Cafe,7330 137 St,Surrey,Restaurant,49.13602606,-122.84257911
445,GEDS-7HXQ8S,Esquires Coffee House (Crescent Rd),12823 Crescent Rd,Surrey,Restaurant,49.05320652,-122.86698325
446,A020410    ,Esso Whalley - Tim Hortons,10416 King George Blvd,Surrey,Restaurant,49.19204825,-122.84506736
447,KSMH-AK2REG,Ethical Addiction,1558 128 St,Surrey,Restaurant,49.03060606,-122.86736234
448,A019867    ,Eurest Dining Services #63384,16705 Fraser Hwy,Surrey,Restaurant,49.14956759,-122.75800969
449,SHEN-APFPTJ,Everbean,15331 16 Ave,Surrey,Restaurant,49.03132543,-122.79862524
450,A018173    ,Evergreen Hamlets - Main Kitchen,8382 156 St,Surrey,Restaurant,49.15520885,-122.78984905
451,SHEN-AU9QAR,Fab Burgers,7320 137 St,Surrey,Restaurant,49.13598565,-122.84267962
452,SWOD-A3VQMW,Famoso Guildford,10355 152 St,Surrey,Restaurant,49.19192585,-122.8042654
453,NDAA-9HDSBY,Famoso Neapolitan,15865 Croydon Dr,Surrey,Restaurant,49.04587135,-122.78245943
454,SHEN-A34Q6W,Fast Donair & Falafel,6820 188 St,Surrey,Restaurant,49.1266045,-122.70143301
455,NDAA-9GA28R,Fatburger (Surrey),1750 152 St,Surrey,Restaurant,49.03414465,-122.80097274
456,HCAR-AUQP2U,Fatburger at Grandview Corner,16070 24 Ave,Surrey,Restaurant,49.04520078,-122.77735281
457,GEDS-6YDQLJ,Fieldstone Artisan Breads,12823 Crescent Rd,Surrey,Restaurant,49.05320652,-122.86698325
458,NDAA-8R8UMV,Fiji Canada Association,13629 108 Ave,Surrey,Restaurant,49.19896859,-122.8443615
459,HCAR-ASRQ6K,Fiona's Playdate Cafe,6820 188 St,Surrey,Restaurant,49.1266045,-122.70143301
460,GEDS-7E5PJ5,Fish Net #1,12211 Beecher St,Surrey,Restaurant,49.0525937,-122.8836791
461,PLAE-7SQTAA,Five Corner Convenience,5989 168 St,Surrey,Restaurant,49.11117004,-122.75683844
462,SDFO-87TMCK,Five Guys Burgers & Fries,2245 160 St,Surrey,Restaurant,49.04289123,-122.77955252
463,A018410    ,Fleetwood Park Fastpitch Concession,15802 80 Ave,Surrey,Restaurant,49.14807967,-122.7831528
464,A016980    ,Fleetwood Park Secondary School,7940 156 St,Surrey,Restaurant,49.14718681,-122.78983897
465,LCAL-64WQUJ,Fleetwood Place Food Service,16011 83rd Ave,Surrey,Restaurant,49.15378461,-122.77798853
466,SHEN-9SGNXL,Fleetwood Sushi Restaurant,15930 Fraser Hwy,Surrey,Restaurant,49.15706506,-122.78187991
467,GEDS-69UQBR,Fleetwood Triple O,15588 Fraser Hwy,Surrey,Restaurant,49.1617117,-122.79063133
468,GEDS-6DLT74,Fleetwood Villa Food Service,16028 83rd Ave,Surrey,Restaurant,49.15344194,-122.77802813
469,NDAA-9QCMD8,Flex Fitness Club,7130 120 St,Surrey,Restaurant,49.13256483,-122.88946309
470,A018553    ,Fong's Eatery,12308 Beecher St,Surrey,Restaurant,49.05281221,-122.88084142
471,GEDS-65SNSU,Fortune Wok (Surrey),1711 152 St,Surrey,Restaurant,49.0331143,-122.80166897
472,NDAA-948T7W,Four Seasons,14351 104 Ave,Surrey,Restaurant,49.19172759,-122.82418348
473,SYOG-5M553H,Frank Hurt Secondary School Cafeteria,13940 77 Ave,Surrey,Restaurant,49.14255953,-122.8359111
474,GEDS-6R5QMX,Fraser Glen Pizza,16814 104 Ave,Surrey,Restaurant,49.19147317,-122.75604935
475,A019745    ,Fraser Heights Secondary School Cafeteria,16060 108 Ave,Surrey,Restaurant,49.19859857,-122.7769301
476,HCAR-ASGSZD,Fraser Region Aboriginal Friendship Centre,10095 Whalley Blvd,Surrey,Restaurant,49.18594714,-122.84348115
477,HCAR-ATYPHV,Fraserview Meats,7218 King George Blvd,Surrey,Restaurant,49.1343323,-122.84521322
478,NDAA-A9KQFU,Fraserview Meats,12837 88 Ave,Surrey,Restaurant,49.16276072,-122.86718741
479,SHEN-A76R64,Fraserview Meats,6377 168 St,Surrey,Restaurant,49.11810961,-122.75689697
480,JRON-6M3P9A,Fraserway Meat,12047 80 Ave,Surrey,Restaurant,49.14874447,-122.88873055
481,GEDS-7J4MNB,Freedom Place,10342 148 St,Surrey,Restaurant,49.19019935,-122.8116967
482,A016716    ,Fresgo Inn,10102 King George Blvd,Surrey,Restaurant,49.18621766,-122.8450997
483,GEDS-6UPMUE,Fresh Hair Concepts,15252 32 Ave,Surrey,Restaurant,49.06101028,-122.79846961
484,NDAA-9EFQJ3,Fresh Street Farms - Sushi,15930 Fraser Hwy,Surrey,Restaurant,49.15706506,-122.78187991
485,HCAR-AW72DJ,Fresh Street Market - Deli,15930 Fraser Hwy,Surrey,Restaurant,49.15706506,-122.78187991
486,NDAA-9BNNTT,Freshii,10355 152 St,Surrey,Restaurant,49.19192585,-122.8042654
487,HCAR-ATMPPQ,Freshii (24th Ave),16030 24 Ave,Surrey,Restaurant,49.04521951,-122.77797867
488,SHEN-APNRFC,Freshii (Surrey),6476 176 St,Surrey,Restaurant,49.12001039,-122.73457578
489,NDAA-8Z8PDS,Freshslice,10153 King George Blvd,Surrey,Restaurant,49.18592247,-122.84584777
490,JDSO-AC4SZY,Freshslice Pizza,10777 University Dr,Surrey,Restaurant,49.19836169,-122.85109663
491,SPLH-AS8TEH,Freshslice Pizza (104th Ave),14357 104 Ave,Surrey,Restaurant,49.19172924,-122.82377185
492,SPLH-9CWVB6,Freshslice Pizza (152nd St Surrey),10355 152 St,Surrey,Restaurant,49.19192585,-122.8042654
493,GEDS-7VFV3F,Freshslice Pizza (152nd St),1711 152 St,Surrey,Restaurant,49.0331143,-122.80166897
494,SHEN-ANSP22,Freshslice Pizza (King George Blvd),7218 King George Blvd,Surrey,Restaurant,49.1343323,-122.84521322
495,GEDS-7RLVLS,Freshslice Pizza (Surrey),10252 City Pky,Surrey,Restaurant,49.18909542,-122.8473918
496,SWOD-AHGU84,Freshslice Pizza - Park Place,9908 King George Hwy,Surrey,Restaurant,49.18334718,-122.84499471
497,SDFO-8MYUSB,FUEL Catering,2570 King George Blvd,Surrey,Restaurant,49.04892267,-122.79710817
498,NDAA-9EBQJ6,Full Ramen Japanese Cuisine,15925 Fraser Hwy,Surrey,Restaurant,49.15861277,-122.78131429
499,GEDS-7E5R5G,Fun World Family Play Center,15355 Fraser Hwy,Surrey,Restaurant,49.16472745,-122.79722923
500,GEDS-7HVQF2,Super Vege Pizza,15299 68 Ave,Surrey,Restaurant,49.12656472,-122.79923406
501,GEDS-65GQZK,Superior Produce,6350 120 St,Surrey,Restaurant,49.11815677,-122.8900634
502,SHEN-AP8MCX,Surrey - Punjab Dhaba,12830 96 Ave,Surrey,Restaurant,49.17696905,-122.86709444
503,A019780    ,Surrey Arts Centre (Bar Concession),13750 88 Ave,Surrey,Restaurant,49.16216661,-122.84241304
504,A019546    ,Surrey Canadian Baseball (Lionel Courchene Park),99 Ave & 154 St,Surrey,Restaurant,49.18255527,-122.79538726
505,GEDS-6KSUZ7,Surrey Catering,10528 City Pky,Surrey,Restaurant,49.19397122,-122.84794051
506,GEDS-84RPVZ,Surrey Damiko Sushi,2950 King George Blvd,Surrey,Restaurant,49.0556839,-122.80555767
507,SWOD-9YWMPT,Surrey Golf Club Bar,7700 168 St,Surrey,Restaurant,49.14223836,-122.75631552
508,SWOD-9YWNBN,Surrey Golf Club Kitchen,7700 168 St,Surrey,Restaurant,49.14223836,-122.75631552
509,GEDS-6BENH6,Surrey House of Grace,13557 King George Blvd,Surrey,Restaurant,49.1999235,-122.8464752
510,RORS-67JTWY,Surrey Memorial Hospital #63229 (Java Express),13750 96 Ave,Surrey,Restaurant,49.1768222,-122.84244062
511,RORS-67JU29,Surrey Memorial Hospital Cafeteria #63229,13750 96 Ave,Surrey,Restaurant,49.1768222,-122.84244062
512,A018835    ,Surrey Memorial Hospital Food Service,13750 96 Ave,Surrey,Restaurant,49.1768222,-122.84244062
513,A016986    ,Surrey Pretrial Centre #60614,14323 57 Ave,Surrey,Restaurant,49.10680826,-122.82605602
514,SHEN-9SSQ4C,Surrey Taxation Centre Cafe #63309,9755 King George Blvd,Surrey,Restaurant,49.17954334,-122.84592467
515,SWOD-APSQBN,Surrey Tiffin Service Limited,14488 72 Ave,Surrey,Restaurant,49.13354678,-122.82071219
516,NDAA-9EBMZR,Surrey Urban Mission Society,10776 King George Blvd,Surrey,Restaurant,49.19846609,-122.84494866
517,SPLH-A9UT9Z,Sushi California (Surrey),10320 152A St,Surrey,Restaurant,49.18995301,-122.79924336
518,SWOD-AHPUXZ,Sushi King George,10344 King George Hwy,Surrey,Restaurant,49.19041518,-122.84507046
519,PNEL-8SCPDC,Sushi King House,17617 56 Ave,Surrey,Restaurant,49.10429566,-122.73436484
520,GEDS-6L7MRP,Sushi Line Japanese Restaurant,7380 King George Blvd,Surrey,Restaurant,49.13673593,-122.84521073
521,SWOD-9YPQUU,Sushi Mori White Rock,15355 24 Ave,Surrey,Restaurant,49.04583671,-122.79750443
522,NDAA-9FLQ9K,Sushi Plus,10777 University Dr,Surrey,Restaurant,49.19836169,-122.85109663
523,HCAR-AU9RUZ,Sushi Tengoku,10194 152 St,Surrey,Restaurant,49.1876798,-122.80063616
524,NDAA-9ENPNZ,Sushi Topia,6350 120 St,Surrey,Restaurant,49.11815677,-122.8900634
525,PNEL-8QMN5H,Sushi Train Restaurant,15380 102A Ave,Surrey,Restaurant,49.18859323,-122.79625235
526,KSMH-AQNQ79,Sushi Well Restaurant,13448 108 Ave,Surrey,Restaurant,49.19874962,-122.84935935
527,NDAA-8YKME8,Sushi Zen,14839 108 Ave,Surrey,Restaurant,49.19943029,-122.81071833
528,HCAR-ASNTAD,Swagat Indian Sweets and Restaurant,9547 152 St,Surrey,Restaurant,49.17590414,-122.80128332
529,ACAK-9BETE2,Sweet Factory (Surrey),10355 152 St,Surrey,Restaurant,49.19192585,-122.8042654
530,HCAR-AW6REQ,Sweets 64,14330 64 Ave,Surrey,Restaurant,49.11851305,-122.82521495
531,ACAK-8UXTZM,Swiss Chalet Rotisserie & Grill #1257,7488 King George Blvd,Surrey,Restaurant,49.13853724,-122.84525515
532,NDAA-9B2PRB,Szechuan Zeng's Restaurant,10302 City Pky,Surrey,Restaurant,49.18995809,-122.84739212
533,A019703    ,T&T (Surrey) Bakery,15277 100 Ave,Surrey,Restaurant,49.1844401,-122.79879019
534,GEDS-6NLQG9,T&T Supermarket #13 - Bakery,10153 King George Blvd,Surrey,Restaurant,49.18592247,-122.84584777
535,GEDS-6NLQMW,T&T Supermarket #13 - Hot Deli Section,10153 King George Blvd,Surrey,Restaurant,49.18592247,-122.84584777
536,GEDS-6NLQRN,T&T Supermarket #13 - Sushi Section,10153 King George Blvd,Surrey,Restaurant,49.18592247,-122.84584777
537,JDSO-ACRPBU,Taco Del Mar #1071,18775 Fraser Hwy,Surrey,Restaurant,49.12479487,-122.7020931
538,SWOD-A3GLTE,Taco Del Mar (Surrey),1797 152 St,Surrey,Restaurant,49.03448175,-122.80146488
539,NDAA-9P9TD5,Taco Time (120th St),8942 120 St,Surrey,Restaurant,49.16539026,-122.89007861
540,KSMH-AQCTH5,Tae Yang Gak Restaurant,10330 152 St,Surrey,Restaurant,49.19027016,-122.80009284
541,ACAK-9AJRE5,Taj Sweets & Restaurant,12047 80 Ave,Surrey,Restaurant,49.14874447,-122.88873055
542,NDAA-9NUPRB,Take Five Cafe,13450 104 Ave,Surrey,Restaurant,49.19146408,-122.84889886
543,A017154    ,Tamanawis Secondary School Cafeteria,12600 66 Ave,Surrey,Restaurant,49.1227153,-122.87242593
544,LCAL-6TFPM4,Tap Urban Cafe & Lounge,15350 34 Ave,Surrey,Restaurant,49.06361005,-122.79698879
545,GEDS-7A2PK4,Taste of Africa,10663 King George Blvd,Surrey,Restaurant,49.19643274,-122.845567
546,SPLH-ASQP6M,Taste of Pho,13979 104 Ave,Surrey,Restaurant,49.19166232,-122.83464941
547,JDSO-ACPLHD,Taste Of Punjab Restaurant,10009 Whalley Blvd,Surrey,Restaurant,49.18485188,-122.84347392
548,NDAA-9A6NSR,Tastefully Yours By Jeff,19329 Enterprise Way,Surrey,Restaurant,49.10834689,-122.6878435
549,A019861    ,Tasters Bakery,10090 152 St,Surrey,Restaurant,49.18575463,-122.80058146
550,NDAA-9H7NNW,Tasty Donair & Company Inc.,13711 72 Ave,Surrey,Restaurant,49.13375945,-122.84256011
551,SWOD-APSP3X,104 Sushi & Co.,10422 168 St,Surrey,Restaurant,49.19205936,-122.75625586
552,SDFO-88ESVK,5 Star Catering,5640 188 St,Surrey,Restaurant,49.10544931,-122.70131471
553,NDAA-8RNNVR,555 Pizza Ltd,9192 120 St,Surrey,Restaurant,49.17027429,-122.88998775
554,SYOG-5M5942,7-Eleven #26365,7986 120 St,Surrey,Restaurant,49.14818852,-122.89022109
555,GEDS-6KHW57,7-Eleven #26517,17638 60 Ave,Surrey,Restaurant,49.11132152,-122.73427092
556,GEDS-7YZN48,7-Eleven #34339,14410 108 Ave,Surrey,Restaurant,49.19859619,-122.82250724
557,SHEN-9SGNQT,7-Eleven #34501,6021 168 St,Surrey,Restaurant,49.11179111,-122.75690367
558,SDFO-8AULF9,7-Eleven #34633,15961 Fraser Hwy,Surrey,Restaurant,49.15789394,-122.77936635
559,SDFO-8L8SZK,7-Eleven #34907,13993 Fraser Hwy,Surrey,Restaurant,49.1792836,-122.83482486
560,ACAK-8XKMAF,7-Eleven #35770,6828 128 St,Surrey,Restaurant,49.12696263,-122.86753123
561,NDAA-9L2T78,7-Eleven #36022H,19188 72 Ave,Surrey,Restaurant,49.13346587,-122.69157627
562,HPAR-AE2S2K,7-Eleven #37876H,7195 King George Blvd,Surrey,Restaurant,49.13306413,-122.84596074
563,SPLH-ASNP2T,7-Eleven #38206,19161 Fraser Hwy,Surrey,Restaurant,49.11961383,-122.69181652
564,SHEN-A2CTME,7-Eleven (Canada Store #37206H),9989 152 St,Surrey,Restaurant,49.18393107,-122.80124717
565,HPAR-AFGRCA,7-Eleven (Canada Store #37865H),14445 64 Ave,Surrey,Restaurant,49.11930582,-122.82268473
566,HPAR-AFGPRP,7-Eleven (Canada Store #37866H),10376 152 St,Surrey,Restaurant,49.19106581,-122.80052367
567,NDAA-99WMTF,7-Eleven Canada Store #36676,9583 132 St,Surrey,Restaurant,49.17681933,-122.85715142
568,HPAR-AE2Q87,7-Eleven Store # 37868,6422 120 St,Surrey,Restaurant,49.11967428,-122.88996212
569,SWOD-AQAKLU,7-ElevenStore and Gas Bar (Canada Store #37875H),10416 King George Blvd,Surrey,Restaurant,49.19204825,-122.84506736
570,RORS-66ES3H,7-Seas Fish Market,2990 152 St,Surrey,Restaurant,49.05622799,-122.80089259
571,SHEN-A2KV3D,777 Pizza & Donair,7750 128 St,Surrey,Restaurant,49.14358109,-122.86765344
572,JDSO-AD4MWR,A & W #0755,8811 126 St,Surrey,Restaurant,49.1633754,-122.87378641
573,GEDS-7UULCR,A&F Caribbean Breeze Catering,8145 130 St,Surrey,Restaurant,49.15057874,-122.86253435
574,A017301    ,A&W #0180,1711 152 St,Surrey,Restaurant,49.0331143,-122.80166897
575,A018613    ,A&W #0315,17830 56 Ave,Surrey,Restaurant,49.10399479,-122.72846685
576,A017293    ,A&W #0338,7330 King George Blvd,Surrey,Restaurant,49.13603845,-122.84523374
577,A017349    ,A&W #0339,12133 72 Ave,Surrey,Restaurant,49.13426872,-122.88670632
578,A017335    ,A&W #0348,15988 Fraser Hwy,Surrey,Restaurant,49.15724844,-122.77953862
579,A018700    ,A&W #0382,13645 102 Ave,Surrey,Restaurant,49.18794418,-122.84392368
580,A020068    ,A&W #0389,8488 120 St,Surrey,Restaurant,49.15703763,-122.89010064
581,SDFO-8HVQQ6,A&W #0575,2303 King George Blvd,Surrey,Restaurant,49.04383959,-122.79200794
582,SWOD-A53UKG,A&W #0768,9900 King George Blvd.,Surrey,Restaurant,49.18235922,-122.84490698
583,NDAA-9BHRSB,A&W #749,10355 152 St,Surrey,Restaurant,49.19192585,-122.8042654
584,SHEN-A6LRKW,A&W Restaurant #0767,16033 108 Ave,Surrey,Restaurant,49.1989669,-122.77775438
585,HCAR-AVHUXX,A&W Restaurant #0789,2332 160 St,Surrey,Restaurant,49.04383012,-122.77640308
586,SHEN-9SZQZX,A&W Restaurant (Campbell Heights),2725 192 St,Surrey,Restaurant,49.05220052,-122.69181883
587,GEDS-7WNLD2,A1 Coffee & Donuts,14795 108 Ave,Surrey,Restaurant,49.19888405,-122.81272726
588,NDAA-9LCTP9,Aaron's Steak & Pizza,17665 57 Ave,Surrey,Restaurant,49.10610661,-122.73323685
589,GEDS-82GN63,Academics preKindergarten,15300 Croydon Dr,Surrey,Restaurant,49.05992987,-122.79803439
590,SDFO-8JPVAP,Active Body (S Surrey),1990 152 St,Surrey,Restaurant,49.03807582,-122.80051906
591,JDSO-AC4PKJ,AFC SUSHI - THRIFTY FOODS 24,15745 Croydon Dr,Surrey,Restaurant,49.0480924,-122.78587926
592,SDFO-8JQQA2,Afghan Bakery and Fast Food,13748 104 Ave,Surrey,Restaurant,49.19140156,-122.84115598
593,GEDS-7NQMLP,Afghan Chopan,12888 80 Ave,Surrey,Restaurant,49.14799486,-122.86604834
594,HCAR-ASJM82,Afghan Kitchen,16120 24 Ave,Surrey,Restaurant,49.04472384,-122.776141
595,GEDS-7SQSSS,Aggarwal Sweets,8158 128 St,Surrey,Restaurant,49.15125369,-122.8651168
596,SHEN-9ZZMMA,Agoongyi Korean Restaurant,19555 Fraser Hwy,Surrey,Restaurant,49.11473773,-122.68111686
597,NDAA-9ENQTN,Aji Sushi Family Kitchen,3268 King George Blvd,Surrey,Restaurant,49.06108806,-122.81205645
598,HCAR-ASGQKX,Aka Sushi,18408 64 Ave,Surrey,Restaurant,49.11859295,-122.71198875
599,PNEL-8PJRAV,Akal Veggies,12788 76A Ave,Surrey,Restaurant,49.14218908,-122.86855856
600,GEDS-6KQRZZ,Akasaka Japanese Restaurant (Surrey),15110 101 Ave,Surrey,Restaurant,49.18597032,-122.80340026
601,ACAK-8YCPMD,Akash Chaat House & Restaurant,12877 80 Ave,Surrey,Restaurant,49.14842952,-122.86514353
602,A018765    ,Al & Jan's Fish & Chips,9014 152 St,Surrey,Restaurant,49.16697429,-122.79924081
603,SWOD-A3NPVR,Alebi African Cuisine,10694 135A St,Surrey,Restaurant,49.19704062,-122.84670383
604,A013615    ,Alexandra Neighbourhood House (Main Dining Hall),2916 McBride Ave,Surrey,Restaurant,49.05540441,-122.88507212
605,A017226    ,Aling Mary's Filipino Restaurant,13979 104 Ave,Surrey,Restaurant,49.19166232,-122.83464941
606,NDAA-8YAT4Z,All About Pho,10190 King George Blvd,Surrey,Restaurant,49.18759458,-122.8451525
607,HCAR-AUXPC5,Ambros Subway,19188 72 Ave,Surrey,Restaurant,49.13346587,-122.69157627
608,PNEL-8SRNSV,Amenida Seniors Community,13855 68 Ave,Surrey,Restaurant,49.12674536,-122.83893841
609,SHEN-AP8V5G,Amritsari Chat Bhandar,8140 128 St,Surrey,Restaurant,49.15063342,-122.86732229
610,NDAA-93ARHG,An Pho Vietnamese Restaurant,13784 104 Ave,Surrey,Restaurant,49.19140543,-122.84041461
611,NDAA-8YPQCC,Anand Pizza and Sweet Shop,13245 72 Ave,Surrey,Restaurant,49.13385503,-122.85542502
612,JDSO-ACPLSA,Anjali's Dosa Garden,13560 77 Ave,Surrey,Restaurant,49.14253796,-122.84706447
613,NDAA-9C3S2J,Aomori Sushi Japanese Restaurant,13767 72 Ave,Surrey,Restaurant,49.13376303,-122.83986765
614,JDSO-ADJN3Q,Funplex,12070 88 Ave,Surrey,Restaurant,49.16306615,-122.88829781
615,SHEN-ANCQV8,Fusion In Town Pizza & Wrap Ltd,14377 64 Ave,Surrey,Restaurant,49.11928035,-122.82376708
616,NDAA-9NYPDW,Gabrielle Roy School Kitchen,6887 132 St,Surrey,Restaurant,49.1283888,-122.85690908
617,SWOD-AGVNX7,Galaxy Pizza,15355 24 Ave,Surrey,Restaurant,49.04583671,-122.79750443
618,GEDS-7VCPN5,Galina's Cafe,13531 102 Ave,Surrey,Restaurant,49.18801137,-122.84707381
619,SHEN-AP5QTE,Galini Greek Kouzina & Grill,19475 Fraser Hwy,Surrey,Restaurant,49.11542665,-122.68277875
620,GEDS-6PNPVF,Garcha Bros Meat Shop,8166 128 St,Surrey,Restaurant,49.15130553,-122.86739367
621,DMIL-9PBSFT,Garcha Bros Meat Shop,13767 72 Ave,Surrey,Restaurant,49.13376303,-122.83986765
622,GEDS-7RSNY3,Garcha Bros Meat Shop (68th Ave),15299 68 Ave,Surrey,Restaurant,49.12656472,-122.79923406
623,JDSO-AD4RB8,Garcha Bros Meat Store,15299 68 Ave,Surrey,Restaurant,49.12656472,-122.79923406
624,KSMH-AWKQW9,Garry's Rasoi,8383 128 St,Surrey,Restaurant,49.15512572,-122.86832975
625,SDFO-8LBUNQ,Gateway Java,13401 108 Ave,Surrey,Restaurant,49.1990937,-122.85025486
626,SDFO-8ET27J,Gateway Pizza & Curry House,9183 148 St,Surrey,Restaurant,49.16994156,-122.81249958
627,GEDS-6NKUWV,Gateway Pizza (Newton),12877 76 Ave,Surrey,Restaurant,49.1411849,-122.86594124
628,SPLH-9P8V42,GB Foods & Sherlocks Imports,13369 72 Ave,Surrey,Restaurant,49.1338361,-122.85309911
629,HCAR-AU2VFF,Glenwood Pizza & Curry House,16793 60 Ave,Surrey,Restaurant,49.11167704,-122.75748196
630,SPLH-9KKRYF,GNJ Vegetarian Bistro,7310 120 St,Surrey,Restaurant,49.1357896,-122.89000833
631,ACAK-9BEQ5F,Go Bananas/Funky Monkey Playcenter (Surrey),13853 104 Ave,Surrey,Restaurant,49.1917049,-122.83806316
632,SWOD-9YXM77,Go Grill,10153 King George Blvd,Surrey,Restaurant,49.18592247,-122.84584777
633,GEDS-7D3TRN,Golden Lion Restaurant,2377 King George Blvd,Surrey,Restaurant,49.04495018,-122.79332955
634,JDSO-AE2MNU,Golden Medal Restaurant,5619 176A St,Surrey,Restaurant,49.10463552,-122.73383079
635,PNEL-8R4MZJ,Golden Panda Restaurant,6355 152 St,Surrey,Restaurant,49.11819888,-122.8013965
636,SHEN-9PATK5,Golden Samosa Bakery,12025 Nordel Way,Surrey,Restaurant,49.16237241,-122.8888952
637,SPLH-9P2SK9,Golden Sweets & Restaurant,6377 168 St,Surrey,Restaurant,49.11810961,-122.75689697
638,SHEN-AP5PB8,Good Day Sunshine Cafe,2950 King George Blvd,Surrey,Restaurant,49.0556839,-122.80555767
639,HCAR-ASNQYD,Goru Goru,15930 Fraser Hwy,Surrey,Restaurant,49.15706506,-122.78187991
640,HCAR-ASRN64,Got 2 Eat Meals,2201 148 St,Surrey,Restaurant,49.04327446,-122.81479456
641,A014243    ,Gracepoint Community Church,3487 King George Blvd,Surrey,Restaurant,49.06520259,-122.8184368
642,A019423    ,Grand Taj Banquet Centre,8388 128 St,Surrey,Restaurant,49.15488649,-122.86770069
643,SHEN-9W7MP5,Grandt Kitchen,12297 Industrial Rd,Surrey,Restaurant,49.21029482,-122.88168028
644,A020392    ,Grassroots Cafe,12666 72 Ave,Surrey,Restaurant,49.13362169,-122.87132535
645,SHEN-9ZKSGP,Great Pizza,15988 Fraser Hwy,Surrey,Restaurant,49.15724844,-122.77953862
646,GEDS-5ZZQLL,Great Pizza 2 For 1,12578 72 Ave,Surrey,Restaurant,49.13327245,-122.87415958
647,SYOG-5M57T4,Greco's Specialty Foods Ltd,6886 King George Blvd,Surrey,Restaurant,49.1277599,-122.84515955
648,A018702    ,Greek Island Pizza,14657 108 Ave,Surrey,Restaurant,49.1989141,-122.81608593
649,ACAK-984PVF,Greek Islands Restaurant,9547 152 St,Surrey,Restaurant,49.17590414,-122.80128332
650,SWOD-AG5UGV,"Green Indian Cuisine, Pizza & Sweets",12565 88 Ave,Surrey,Restaurant,49.16401631,-122.87478148
651,GEDS-65VQV3,Green Lettuce Restaurant,6350 120 St,Surrey,Restaurant,49.11815677,-122.8900634
652,NDAA-92XPX8,Green Timbers Market (RCMP),14200 Green Timbers Way,Surrey,Restaurant,49.17966902,-122.82991451
653,A018895    ,Green Timbers Pub,9167 148 St,Surrey,Restaurant,49.16961161,-122.81249576
654,A013869    ,Growing Together Day Care - Food Service,10707 146 St,Surrey,Restaurant,49.19694731,-122.81782452
655,GEDS-65VSG5,Guildford Family Place,10310 154 St,Surrey,Restaurant,49.18936699,-122.79504406
656,SYOG-5M59T6,Guildford Gardens Daycare,14921 107A Ave,Surrey,Restaurant,49.19832797,-122.80868125
657,A018362    ,Guildford Golf & Country Club Concession,7929 152 St,Surrey,Restaurant,49.14458309,-122.80138504
658,A018363    ,Guildford Golf & Country Club Lounge,7929 152 St,Surrey,Restaurant,49.14458309,-122.80138504
659,A018364    ,Guildford Golf & Country Club Restaurant,7929 152 St,Surrey,Restaurant,49.14458309,-122.80138504
660,A016534    ,Guildford Park Secondary School Cafeteria,10707 146 St,Surrey,Restaurant,49.19694731,-122.81782452
661,ACAK-8XGSTR,Guildford Pizza & Pasta,10790 148 St,Surrey,Restaurant,49.1981435,-122.81225609
662,SYOG-5M563K,Guildford Pizza & Restaurant,10727 135A St,Surrey,Restaurant,49.19753024,-122.84725955
663,SWOD-AKBUJF,Guildford Seniors Village Food Service,14568 104A Ave,Surrey,Restaurant,49.19257834,-122.81834538
664,A016834    ,Guildford Station Pub,10176 154 St,Surrey,Restaurant,49.18758872,-122.79506442
665,GEDS-6J6MB7,Guildford Sushi House,10330 152 St,Surrey,Restaurant,49.19027016,-122.80009284
666,SHEN-AJDP5A,Gulberg Catering & Production Centre,8322 130 St,Surrey,Restaurant,49.15374911,-122.86203637
667,GEDS-7VAT7S,Gulberg Fine Cuisine,15950 Fraser Hwy,Surrey,Restaurant,49.15767131,-122.78024198
668,SHEN-9TNMS5,Gulberg Mediterranean & Persian Grill,12578 72 Ave,Surrey,Restaurant,49.13327245,-122.87415958
669,GEDS-6D8TJW,Gulberg Tandoor & Donair,12578 72 Ave,Surrey,Restaurant,49.13327245,-122.87415958
670,GEDS-6AAPTZ,Gurdwara Amrit Prakash Sikh Temple,7990 123A St,Surrey,Restaurant,49.14785795,-122.88029748
671,GEDS-76HV2F,Gurdwara Dukh Nivaran Sahib Society,15255 68 Ave,Surrey,Restaurant,49.12656348,-122.79989961
672,GEDS-85ZT62,Gurdwara Sahib Brookside Temple,8365 140 St,Surrey,Restaurant,49.15472947,-122.83497059
673,A013876    ,Gurdwara Sahib Dasmesh Darbar,12885 85 Ave,Surrey,Restaurant,49.15780659,-122.86528314
674,PGOO-63CUDS,Guru Lucky Snacks & Sweets,7660 134 St,Surrey,Restaurant,49.14197248,-122.8509582
675,GEDS-65VTRU,Guru Nanak Sikh Gurdwara Temple,7050 120 St,Surrey,Restaurant,49.13132323,-122.88998576
676,GEDS-73JSZZ,H Anmol Sweet & Restaurant,8363 128 St,Surrey,Restaurant,49.15466529,-122.86936002
677,PNEL-8RBQFL,Tasty Sandwich,14351 104 Ave,Surrey,Restaurant,49.19172759,-122.82418348
678,A014692    ,Tay Do Deli,13740 104 Ave,Surrey,Restaurant,49.19140638,-122.84138077
679,PNEL-8SNLX7,Texx Big Burger,14783 108 Ave,Surrey,Restaurant,49.19888028,-122.81312507
680,SDFO-8LQSRL,Thai By Thai Restaurant,9164 120 St,Surrey,Restaurant,49.16981011,-122.88997782
681,SWOD-9Y3V4S,Thai Delicious Entrepreneur,5737 176 St,Surrey,Restaurant,49.1066014,-122.73518997
682,NDAA-9C3S9V,Thai Express,10355 152 St,Surrey,Restaurant,49.19192585,-122.8042654
683,SDFO-8GGQ3X,Thai Express (Central City),10153 King George Blvd,Surrey,Restaurant,49.18592247,-122.84584777
684,SWOD-AQHT2B,Thali Sweets and Restaurant,15932 96 Ave,Surrey,Restaurant,49.17674494,-122.78081937
685,NDAA-9GRQLB,The Barrel Public House,7115 138 St,Surrey,Restaurant,49.1320397,-122.83918107
686,NDAA-97WT8K,The Cabin,12302 Beecher St,Surrey,Restaurant,49.05286101,-122.88097817
687,SHEN-A7GRE8,The Carvery,2430 King George Blvd,Surrey,Restaurant,49.04649485,-122.79410715
688,SHEN-A7PRKW,The Clayton Public House,5640 188 St,Surrey,Restaurant,49.10544931,-122.70131471
689,GEDS-7BRPSU,The Derby Bar and Grill,17637 1 Ave,Surrey,Restaurant,49.00418376,-122.73369638
690,GEDS-7NPR5Q,The Ellendale Program (Liz's House),11187 Ellendale Dr,Surrey,Restaurant,49.20612691,-122.81184611
691,GEDS-6BEQNQ,The Gateway,13787 100 Ave,Surrey,Restaurant,49.18446233,-122.84039664
692,SHEN-APFTAF,The Gourmet Lunch Ladies,10727 135A St,Surrey,Restaurant,49.19753024,-122.84725955
693,ACAK-984PZN,The Greek Corner,7218 King George Blvd,Surrey,Restaurant,49.1343323,-122.84521322
694,SHEN-ALXSDR,The Guildford Shelter,14716 104 Ave,Surrey,Restaurant,49.19127333,-122.81420065
695,NDAA-8ZRP23,The Henry Public House,5708 176 St,Surrey,Restaurant,49.10624944,-122.73474876
696,NDAA-8ZRPYH,The Henry Public House - Bar,5708 176 St,Surrey,Restaurant,49.10624944,-122.73474876
697,SHEN-AP8NDS,The Jin Sushi Japanese Restaurant,7360 137 St,Surrey,Restaurant,49.13640026,-122.84263893
698,SWOD-9Y2R2N,The Lookout Emergency Aid Society,10667 135A St,Surrey,Restaurant,49.19637938,-122.84705681
699,GEDS-7ZMQS2,The Lunch Lady (Surrey),18651 52 Ave,Surrey,Restaurant,49.09727663,-122.7062227
700,SHEN-ATTUV4,The Madinaz Restaurant,9320 120 St,Surrey,Restaurant,49.17223237,-122.88991513
701,SWOD-AMVU3K,The Modern General Store Inc,3388 Rosemary Heights Cres,Surrey,Restaurant,49.06333416,-122.79817335
702,GEDS-7N9MKV,The Palms Bistro,9008 158 St,Surrey,Restaurant,49.16662849,-122.78337184
703,GEDS-6WMPUQ,The Phoenix Centre Food Service,13686 94A Ave,Surrey,Restaurant,49.17453209,-122.8433061
704,NDAA-8YCRM6,The Residence At Clayton Heights,18788 71 Ave,Surrey,Restaurant,49.13176633,-122.70267748
705,GEDS-85ZPJW,The Residence at Morgan Heights - Bistro,15955 27 Ave,Surrey,Restaurant,49.05117841,-122.77987497
706,GEDS-7UWV6W,The Residence at Morgan Heights - Main Kitchen,15955 27 Ave,Surrey,Restaurant,49.05117841,-122.77987497
707,PGOO-66GTL6,The Roost,13582 68 Ave,Surrey,Restaurant,49.12608084,-122.8460389
708,GEDS-7R4QDM,The Royal King Palace & Convention Centre,8158 128 St,Surrey,Restaurant,49.15125369,-122.8651168
709,SHEN-9T8MWG,The Rustic Rooster,5723 176 St,Surrey,Restaurant,49.10638755,-122.73519222
710,SHEN-ABUP3P,The Samosa House,12837 88 Ave,Surrey,Restaurant,49.16276072,-122.86718741
711,NDAA-9DKRKH,The Sushi Bar,7115 138 St,Surrey,Restaurant,49.1320397,-122.83918107
712,SHEN-9QASZ2,The Taphouse,15330 102A Ave,Surrey,Restaurant,49.1886146,-122.79749325
713,GEDS-82CUR9,Thrifty Foods #24 - Deli & Cheese Section,15745 Croydon Dr,Surrey,Restaurant,49.0480924,-122.78587926
714,GEDS-82CUW2,Thrifty Foods #24 - Meat & Seafood Section,15745 Croydon Dr,Surrey,Restaurant,49.0480924,-122.78587926
715,SWOD-AHGN6F,Tim Horton's #106868,9900 King George Blvd,Surrey,Restaurant,49.18235922,-122.84490698
716,NDAA-92QN5J,Tim Horton's (RCMP),14200 Green Timbers Way,Surrey,Restaurant,49.17966902,-122.82991451
717,NDAA-A6HSNT,Tim Hortons #1095,16033 108 Ave,Surrey,Restaurant,49.1989669,-122.77775438
718,A018381    ,Tim Hortons #1377,2360 King George Blvd,Surrey,Restaurant,49.04510073,-122.79246751
719,A018397    ,Tim Hortons #2172,12169 72 Ave,Surrey,Restaurant,49.13422021,-122.88586127
720,A018399    ,Tim Hortons #2173,3077 152 St,Surrey,Restaurant,49.05767913,-122.80211251
721,GEDS-6A5QDU,Tim Hortons #2530,7195 King George Blvd,Surrey,Restaurant,49.13306413,-122.84596074
722,GEDS-6A2PN7,Tim Hortons #2608,10320 152 St,Surrey,Restaurant,49.19010913,-122.80059715
723,SODN-65HTBW,Tim Hortons #2656,12110 Nordel Way,Surrey,Restaurant,49.16168908,-122.88694047
724,GEDS-6GTRF5,Tim Hortons #2783,8215 166 St,Surrey,Restaurant,49.15143096,-122.76197163
725,GEDS-6HLTS7,Tim Hortons #2816,10376 152 St,Surrey,Restaurant,49.19106581,-122.80052367
726,GEDS-6MVPBZ,Tim Hortons #2889,17888 56 Ave,Surrey,Restaurant,49.10394533,-122.72674647
727,GEDS-6VRPUD,Tim Hortons #2956,14445 64 Ave,Surrey,Restaurant,49.11930582,-122.82268473
728,GEDS-6WLREY,Tim Hortons #3016,17695 64 Ave,Surrey,Restaurant,49.11896956,-122.73286464
729,GEDS-76LQ6B,Tim Hortons #3077,18682 Fraser Hwy,Surrey,Restaurant,49.12458427,-122.70441201
730,GEDS-775V2T,Tim Hortons #3083,7288 King George Blvd,Surrey,Restaurant,49.13492356,-122.84514204
731,A018984    ,Tim Hortons #311,15551 Fraser Hwy,Surrey,Restaurant,49.16241879,-122.79125861
732,GEDS-7HQPTW,Tim Hortons #3225,2355 160 St,Surrey,Restaurant,49.04439297,-122.78143202
733,GEDS-7HVTQV,Tim Hortons #3226,6422 120 St,Surrey,Restaurant,49.11967428,-122.88996212
734,GEDS-7M6PXX,Tim Hortons #3304,16141 24 Ave,Surrey,Restaurant,49.04581186,-122.77575679
735,GEDS-85SR8F,Tim Hortons #3676,19218 96 Ave,Surrey,Restaurant,49.1767759,-122.69008088
736,NDAA-9C5T5J,Tim Hortons #4373 Country Woods,3233 176 St,Surrey,Restaurant,49.06053523,-122.73584746
737,ACAK-9BEV2L,Tim Hortons #4457,10355 152 St,Surrey,Restaurant,49.19192585,-122.8042654
738,SYOG-5M562C,Tim Hortons #446,1767 152 St,Surrey,Restaurant,49.03378679,-122.80164304
739,NDAA-93UU5A,Tim Hortons #4510,2711 192 St,Surrey,Restaurant,49.05150946,-122.6918208
740,GEDS-7HVV7W,Apna Chaat House,7500 120 St,Surrey,Restaurant,49.13913715,-122.8900684
741,NDAA-98TQ7G,Arbourside Court,13751 74 Ave,Surrey,Restaurant,49.13739667,-122.84046032
742,SHEN-A72QX9,Archies BBQ,10180 153rd St,Surrey,Restaurant,49.1875961,-122.7978827
743,MMAR-8CYQ38,Argyll Lodge,14590 106A Ave,Surrey,Restaurant,49.1958818,-122.817822
744,SPLH-9SZU57,Aria Banquet & Convention Centre,12350 Pattullo Pl,Surrey,Restaurant,49.20319635,-122.88030063
745,GEDS-7TBT7Q,Arirang Korean Restaurant,14916 104 Ave,Surrey,Restaurant,49.19133805,-122.80824716
746,A019968    ,Asia Restaurant,15551 Fraser Hwy,Surrey,Restaurant,49.16241879,-122.79125861
747,JDSO-ACJV37,Asian Flavour Deli,13048 Old Yale Rd,Surrey,Restaurant,49.18882471,-122.86071645
748,GEDS-6HLMTJ,Asian Noodle Island,15988 Fraser Hwy,Surrey,Restaurant,49.15724844,-122.77953862
749,RORS-63ZMXY,Assini Pizza Restaurant Ltd,15551 Fraser Hwy,Surrey,Restaurant,49.16241879,-122.79125861
750,NDAA-94FQEJ,Awahsuk Aboriginal Head Start Association of BC,14589 108 Ave,Surrey,Restaurant,49.198918,-122.81762836
751,SWOD-AF3QQF,Ay Chihuahua Mexican Food,1726 152 St,Surrey,Restaurant,49.03330007,-122.80093629
752,GEDS-78NVVM,Ba Le Deli & Sandwiches,15277 100 Ave,Surrey,Restaurant,49.1844401,-122.79879019
753,SHEN-9PELJD,Backstretch Restaurant,17740 62 Ave,Surrey,Restaurant,49.11555279,-122.73085111
754,SWOD-A84PT4,Bahay Kubo (Filipino Cuisine),10294 City Pky,Surrey,Restaurant,49.18970667,-122.84739825
755,PNEL-8R5V4M,Baik Mi Korean Restaurant,19539 Fraser Hwy,Surrey,Restaurant,49.11496842,-122.68161868
756,SHEN-9ZWSSQ,Bakeshop and Cafe,16011 Fraser Hwy,Surrey,Restaurant,49.15741148,-122.77843067
757,NDAA-9K2Q6R,Bamboo Restaurant,15785 Croydon Dr,Surrey,Restaurant,49.0472666,-122.78436901
758,SHEN-9TFPMS,Barcelos Chicken,12499 88 Ave,Surrey,Restaurant,49.16335778,-122.8766604
759,SHEN-A63QD6,Barcelos Flame Grilled Chicken (King George),7577 King George Blvd,Surrey,Restaurant,49.14042433,-122.84594096
760,GEDS-7V3R4H,Barney's Pizza & Chicken,8140 128 St,Surrey,Restaurant,49.15063342,-122.86732229
761,KSMH-ASJPMA,Baron's Manor Pub,9568 192 St,Surrey,Restaurant,49.17632235,-122.69012307
762,JDSO-AC3PRJ,Basant Sweet,8148 128 St,Surrey,Restaurant,49.15057771,-122.86483054
763,GEDS-6JTQZT,Baselines Pub,8233 166 St,Surrey,Restaurant,49.15164148,-122.76197059
764,GEDS-6VQNPM,Baselines Pub,1938 152 St,Surrey,Restaurant,49.03724945,-122.8009197
765,A019739    ,Baskin-Robbins Ice Cream #5321,19585 Fraser Hwy,Surrey,Restaurant,49.11428272,-122.68011662
766,NDAA-9RWU3U,BBQ King Delight Inc,8973 152 St,Surrey,Restaurant,49.16573945,-122.80180434
767,SWOD-AKEM7K,BBQ Nation,7238 137 St,Surrey,Restaurant,49.1345334,-122.84261524
768,SYOG-5M5624,Bear Creek Market,8776 140 St,Surrey,Restaurant,49.16246168,-122.83440143
769,SDFO-8FAUQX,Bear Creek Market,13578 88 Ave,Surrey,Restaurant,49.16252604,-122.847019
770,SHEN-9ZSST8,Bear Creek Park Concession,13750 88 Ave,Surrey,Restaurant,49.16216661,-122.84241304
771,SHEN-AGKTZV,Bear Creek Pub,13588 88 Ave,Surrey,Restaurant,49.16252802,-122.84686461
772,NDAA-986SEL,Bear Creek Villa,8233 140 St,Surrey,Restaurant,49.15268943,-122.83494426
773,ACAK-962S88,Beast & Brine Local Provisions,12823 Crescent Rd,Surrey,Restaurant,49.05320652,-122.86698325
774,JDSO-ACWPVF,Belles Cafe,3208 140 St,Surrey,Restaurant,49.06048553,-122.83416225
775,NDAA-99QSEC,Bengal Grill,12736 80 Ave,Surrey,Restaurant,49.14802998,-122.8697216
776,SDFO-886NQ3,Bennett Craft & Kitchen,187 176 St,Surrey,Restaurant,49.00522904,-122.73581585
777,SWOD-AETSW7,Bento Nouveau,2332 160 St,Surrey,Restaurant,49.04383012,-122.77640308
778,PNEL-8SUUNC,Bento Nouveau (RCSS #1521),7550 King George Blvd,Surrey,Restaurant,49.13966312,-122.84525795
779,GEDS-6TCTLH,Bento Nouveau (RCSS #1556),14650 104 Ave,Surrey,Restaurant,49.19123455,-122.81602592
780,GEDS-7NQ2E6,Bethshan Gardens,17528 59 Ave,Surrey,Restaurant,49.10942888,-122.7372715
781,GEDS-6HJTPV,Bhaia Sweet & Restaurant,13753 72 Ave,Surrey,Restaurant,49.13377078,-122.84058109
782,PGOO-65PTDL,Bhaia Sweet Shop & Restaurant,6828 128 St,Surrey,Restaurant,49.12696263,-122.86753123
783,NDAA-A4VRMG,Bharat Parmar Sweet Shop & Restaurant,13745 72 Ave,Surrey,Restaurant,49.13376451,-122.84112685
784,PNEL-8RHMTB,Bharat Sweets & Restaurant,15166 Fraser Hwy,Surrey,Restaurant,49.16628593,-122.80239283
785,NDAA-93AV3A,Big Chicken Town,15280 101 Ave,Surrey,Restaurant,49.18597274,-122.79860311
786,GEDS-85UR69,Big Ridge Brewing Company,5580 152 St,Surrey,Restaurant,49.10381618,-122.80067617
787,SWOD-APUNLH,Big Star Sandwich Co (Surrey),13402 104 Ave,Surrey,Restaurant,49.19147564,-122.85085672
788,GEDS-7VHV5K,Bistro Panini,10277 City Pky,Surrey,Restaurant,49.18955259,-122.84788863
789,SPLH-ARZV5U,Black Tiger Coffee Co,19255 Fraser Hwy,Surrey,Restaurant,49.11894729,-122.68943107
790,NDAA-9BXTB7,Blenz Central City,13450 102 Ave,Surrey,Restaurant,49.18791904,-122.84876653
791,PNEL-8RZMFC,Blenz Coffee (152nd),1711 152 St,Surrey,Restaurant,49.0331143,-122.80166897
792,SWOD-A59RBM,Blenz Coffee (Central City South),10153 King George Blvd,Surrey,Restaurant,49.18592247,-122.84584777
793,SWOD-AHJR4U,Blenz Coffee (Sullivan Heights),14330 64 Ave,Surrey,Restaurant,49.11851305,-122.82521495
794,SDFO-8LPPWW,Blenz Coffee Cafe,9750 140 St,Surrey,Restaurant,49.1797256,-122.83382477
795,SDFO-8HETFG,Blenz Coffee Kiosk (140th St),9750 140 St,Surrey,Restaurant,49.1797256,-122.83382477
796,SHEN-A6LSGW,Blenz Guildford Rec Centre,15105 105 Ave,Surrey,Restaurant,49.19341233,-122.80253945
797,NDAA-9BXPQ9,Blenz SFU Kiosk,13450 102 Ave,Surrey,Restaurant,49.18791904,-122.84876653
798,GEDS-7F2T6G,Boardwalk Gaming Centre,7093 King George Blvd,Surrey,Restaurant,49.13100319,-122.84598983
799,NDAA-A4NNJN,Boiling Point,15146 100 Ave,Surrey,Restaurant,49.18396932,-122.80224523
800,NDAA-A2KMBQ,Bolivar Heights Gas Bar,13916 Grosvenor Rd,Surrey,Restaurant,49.20368515,-122.83634833
801,GEDS-77FUY9,Bollywood Banquet Hall,8166 128 St,Surrey,Restaurant,49.15130553,-122.86739367
802,GEDS-6KQRHX,Bombay Banquet Hall,7475 135 St,Surrey,Restaurant,49.13828837,-122.84878162
803,SHEN-AP8PBW,H-Mart Hot Food,19555 Fraser Hwy,Surrey,Restaurant,49.11473773,-122.68111686
804,GEDS-69F2AU,Hanako Japanese Restaurant,15135 101 Ave,Surrey,Restaurant,49.18630015,-122.80270224
805,NDAA-9S2VV2,Hanaya Japanese Restaurant,2828 152 St,Surrey,Restaurant,49.05326246,-122.80090544
806,SPLH-AV2T2V,Hangry Health Bar,15380 102A Ave,Surrey,Restaurant,49.18859323,-122.79625235
807,A020358    ,Hannam Supermarket (Deli),15357 104 Ave,Surrey,Restaurant,49.19170326,-122.7966521
808,SWOD-AF3Q48,Hansel Deli,5804 176 St,Surrey,Restaurant,49.10792392,-122.73477258
809,SHEN-A85UYH,Happiness Seafood Restaurant,8080 120 St,Surrey,Restaurant,49.15013643,-122.89001353
810,A018866    ,Happy Farm Group Centre for Children Food Service,9458 134 St,Surrey,Restaurant,49.1745729,-122.8511954
811,GEDS-797Q8J,Happy Jacks Cafe,10470 152 St,Surrey,Restaurant,49.19270855,-122.8005444
812,NDAA-ALUNEN,HappyCakes CupCakes & More,18640 Fraser Hwy,Surrey,Restaurant,49.12546293,-122.70609458
813,ACAK-9C6MEE,Harry's Pizza & Curry House Ltd,7999 King George Blvd,Surrey,Restaurant,49.14759429,-122.84604388
814,SHEN-A6AMSN,Haru Japanese Restaurant,19390 68 Ave,Surrey,Restaurant,49.12623835,-122.68582352
815,SPLH-ASHT5Z,Haryana Sweets & Catering Service,12448 82 Ave,Surrey,Restaurant,49.15185171,-122.87780713
816,NDAA-9H7NFY,Hawthorne Beer Market & Bistro,5633 176 St,Surrey,Restaurant,49.10484451,-122.73519859
817,A018954    ,Hazelmere Golf & Tennis Club Lounge/Kitchen,18150 8 Ave,Surrey,Restaurant,49.01621711,-122.71914816
818,A018910    ,Hazelmere Golf & Tennis Club Main Dining Room,18150 8 Ave,Surrey,Restaurant,49.01621711,-122.71914816
819,A018953    ,Hazelmere Golf & Tennis Club Snack Bar,18150 8 Ave,Surrey,Restaurant,49.01621711,-122.71914816
820,A018992    ,Hazelmere Lodge Food Service,19475 16 Ave,Surrey,Restaurant,49.0312795,-122.68346549
821,ACAK-8VHRZ5,Healthy Monkey Cafe,2970 King George Blvd,Surrey,Restaurant,49.05621632,-122.80586112
822,NDAA-9B8VBQ,Healthy Monkey II,15355 24 Ave,Surrey,Restaurant,49.04583671,-122.79750443
823,A018926    ,Helping Hands Children's Centre Food Service,9012 160 St,Surrey,Restaurant,49.16698471,-122.77852686
824,GEDS-7R4TU5,Hi Japanese Sushi,3388 Rosemary Heights Cres,Surrey,Restaurant,49.06333416,-122.79817335
825,A018906    ,Hillside Lodge Food Service,10592 125B St,Surrey,Restaurant,49.19553336,-122.87370932
826,GEDS-7ELT6P,Hilton Villa Care Centre Partnership,13525 Hilton Rd,Surrey,Restaurant,49.20227873,-122.84704828
827,GEDS-6SAQMH,Holiday Inn Express Surrey - Breakfast Area,15808 104 Ave,Surrey,Restaurant,49.19136246,-122.78338023
828,GEDS-775L8C,Holy Cross Regional Secondary School,16193 88 Ave,Surrey,Restaurant,49.16295131,-122.77380247
829,SHEN-AMWR8K,Holy Taco,15951 Fraser Hwy,Surrey,Restaurant,49.15815596,-122.78024868
830,GEDS-6LD2F9,Honeybee Centre - Kitchen,7480 176 St,Surrey,Restaurant,49.13885443,-122.73415347
831,SWOD-AG5VHF,Hook and Ladder Bar & Grill,8593 132 St,Surrey,Restaurant,49.15844548,-122.85743747
832,SDFO-8FEUYM,Hooked Fish Bar,12157 Beecher St,Surrey,Restaurant,49.05231219,-122.88477517
833,HCAR-AU9V4X,Hot Millions Pizza & Cafe,9200 120 St,Surrey,Restaurant,49.17059222,-122.89001584
834,SHEN-AGKN4N,Hot Pan Pizza,13634 104 Ave,Surrey,Restaurant,49.19144332,-122.84429518
835,HCAR-AVHVJQ,Huong Coffee & Sandwiches,10673 King George Blvd,Surrey,Restaurant,49.19673595,-122.84570931
836,HCAR-ASV26J,Huyen Coffee Shop,13551 105A Ave,Surrey,Restaurant,49.194609,-122.84665973
837,GEDS-5SQS5N,Hyland House Food Service,6595 King George Blvd,Surrey,Restaurant,49.12268571,-122.84592441
838,ACAK-8XKTKS,IHOP #309,2429 152 St,Surrey,Restaurant,49.04616705,-122.80150814
839,A018356    ,IHOP #312,8170 120 St,Surrey,Restaurant,49.15202276,-122.89007358
840,SHEN-A28S8A,Ike Sushi,19188 72 Ave,Surrey,Restaurant,49.13346587,-122.69157627
841,SHEN-ABJTGL,Il Uk Jo Restaurant Ltd.,15188 Fraser Hwy,Surrey,Restaurant,49.16616158,-122.80203392
842,PNEL-8R2TQT,Imitating Christ Training Centre,12969 Crescent Rd,Surrey,Restaurant,49.05502583,-122.86314223
843,GEDS-6SYPL6,Imperial Place Residences,13853 102 Ave,Surrey,Restaurant,49.18792654,-122.83832864
844,KSMH-ARBUG6,Iraqi Cultural Cafe,15310 103A Ave,Surrey,Restaurant,49.18977988,-122.79835854
845,SYOG-5M598H,Irmandade Portuguesa Do Santo Cultural Society,12918 112 Ave,Surrey,Restaurant,49.20610809,-122.86432312
846,SHEN-AU2Q9Y,Islands Cafe,16041 24 Ave,Surrey,Restaurant,49.04630357,-122.77770572
847,GEDS-6TKTH5,Izumo Sushi Japanese Restaurant,13631 100 Ave,Surrey,Restaurant,49.18443697,-122.84428516
848,NDAA-9BXM68,Jack's Public House,9082 152 St,Surrey,Restaurant,49.16791232,-122.80097882
849,A018937    ,Jade Valley Restaurant,10090 152 St,Surrey,Restaurant,49.18575463,-122.80058146
850,SHEN-9YPTKH,Jaipur Indian Cuisine,8840 120 St,Surrey,Restaurant,49.16398489,-122.89007129
851,HCAR-AW2REP,Jake the Caveman,19289 No 10 Hwy,Surrey,Restaurant,49.10550679,-122.6882514
852,SDFO-8J9M9C,Jasna Cafe,10320 Whalley Blvd,Surrey,Restaurant,49.19005253,-122.84168995
853,SHEN-9Z3L58,Java Hut Cafe,7728 128 St,Surrey,Restaurant,49.1427663,-122.86766933
854,JDSO-ACJTFT,JC Express Chinese Food,15355 24 Ave,Surrey,Restaurant,49.04583671,-122.79750443
855,SDFO-8GDM7A,Jerusalem Grill,15933 Fraser Hwy,Surrey,Restaurant,49.15909621,-122.78079001
856,NDAA-99RSDB,Jin Soo Sung Chan Korean Restaurant,10312 152A St,Surrey,Restaurant,49.18971779,-122.79925035
857,SYOG-5M58ZM,Johnston Heights Church,9612 152 St,Surrey,Restaurant,49.17741513,-122.80074176
858,SYOG-5M57NR,Johnston Heights Secondary School Cafeteria,15350 99 Ave,Surrey,Restaurant,49.18238896,-122.79671856
859,HCAR-AVQMBN,Joie De Vivre,15300 105 Ave,Surrey,Restaurant,49.19317507,-122.79771794
860,GEDS-6CFT6B,Jolly Mac's,14815 108 Ave,Surrey,Restaurant,49.19943838,-122.81214122
861,NDAA-9RTT4X,Jon's Newtrition Kitchen Catering Services,13483 72 Ave,Surrey,Restaurant,49.13375295,-122.84888847
862,SWOD-9YMUZR,Jugo Juice (Grandview Corners),2443 161A St,Surrey,Restaurant,49.0469929,-122.77530006
863,SHEN-9Z5QJD,Jugo Juice (Guildford),10355 152 St,Surrey,Restaurant,49.19192585,-122.8042654
864,GEDS-84XT8W,Jumbo Pizza (Surrey),5780 176A St,Surrey,Restaurant,49.10748286,-122.73348836
865,SHEN-ACXME6,Junior Scholars Educational Childcare,5728 142 St,Surrey,Restaurant,49.1069376,-122.82856869
866,RORS-5Y9NE5,Tim Hortons #458,8080 120 St,Surrey,Restaurant,49.15013643,-122.89001353
867,ACAK-985T7J,Tim Hortons #5038,12467 88 Ave,Surrey,Restaurant,49.16356002,-122.8778743
868,SPLH-A9VMPY,Tim Hortons #6270,19171 Fraser Hwy,Surrey,Restaurant,49.11948505,-122.69150004
869,HCAR-AUHPDL,Tim Hortons #7386,12941 115 Ave,Surrey,Restaurant,49.21147665,-122.86243455
870,A019531    ,Tim Hortons #87,9595 King George Blvd,Surrey,Restaurant,49.17662318,-122.84621544
871,SDFO-89RTBJ,Tim Hortons (Surrey Campus),12666 72 Ave,Surrey,Restaurant,49.13362169,-122.87132535
872,SDFO-8LHV7L,Timbergrove Kitchen,13922 101 Ave,Surrey,Restaurant,49.18577846,-122.83625862
873,GEDS-7XGU9Z,Time Out - Baskin Robbins,6351 152 St,Surrey,Restaurant,49.11798242,-122.80127608
874,GEDS-7XGUJU,Time Out - California Gourmet Pizza,6351 152 St,Surrey,Restaurant,49.11798242,-122.80127608
875,GEDS-6E3SXC,Tobiko Sushi,15951 Fraser Hwy,Surrey,Restaurant,49.15815596,-122.78024868
876,SHEN-9YTQ9N,Tobiko Sushi,2711 192 St,Surrey,Restaurant,49.05150946,-122.6918208
877,KSMH-AWKPSL,Tofun Fusion Hot Pot,3189 King George Blvd,Surrey,Restaurant,49.05963853,-122.81161686
878,SWOD-A3HQFP,Tomato Shack Pizza,10322 Whalley Blvd,Surrey,Restaurant,49.19020269,-122.84170678
879,SHEN-A7GQGT,Tomu Sushi,9613 192 St,Surrey,Restaurant,49.17736128,-122.69071803
880,SDFO-8GPUJX,Top in Town Pizza,12788 76A Ave,Surrey,Restaurant,49.14218908,-122.86855856
881,SHEN-ANSLB4,Top In Town Pizza,14330 64 Ave,Surrey,Restaurant,49.11851305,-122.82521495
882,SWOD-AHPSG3,Top In Town Pizza,16016 Fraser Hwy,Surrey,Restaurant,49.1569315,-122.77828096
883,GEDS-75FV9W,Top King's Chinese Restaurant and Cafe,10294 City Pky,Surrey,Restaurant,49.18970667,-122.84739825
884,SHEN-AU2QEA,Top Quality Pizza,9540 120 St,Surrey,Restaurant,49.17633624,-122.88916895
885,NDAA-93ES27,Townhall Public House South Surrey,3140 King George Blvd,Surrey,Restaurant,49.05918452,-122.80989859
886,SWOD-9Z4PZQ,Townline Pizza,17767 64 Ave,Surrey,Restaurant,49.11898358,-122.7302435
887,GEDS-78Z28W,Toyota Cafe,15389 Guildford Dr,Surrey,Restaurant,49.19677339,-122.79507059
888,NDAA-9GYQWB,Training Day Cafe,8077 King George Blvd,Surrey,Restaurant,49.1494583,-122.8460133
889,SWOD-AFXQQ6,Training Day Cafe (Surrey),15345 56 Ave,Surrey,Restaurant,49.10525524,-122.79768336
890,GEDS-6E8STL,TREES,13479 76 Ave,Surrey,Restaurant,49.141013,-122.84900704
891,NDAA-92RNUZ,Triple 8 Restaurant,15138 100 Ave,Surrey,Restaurant,49.18398086,-122.80253015
892,NDAA-A7TQMD,Triple O's Burgers,14350 64 Ave,Surrey,Restaurant,49.11891915,-122.82462973
893,SWOD-A3YVCN,Turf Hotel 1967 Ltd.,12411 King George Blvd,Surrey,Restaurant,49.20660045,-122.87798388
894,ACAK-8VQTQF,Turf Hotel Lounge,12411 King George Blvd,Surrey,Restaurant,49.20660045,-122.87798388
895,A016687    ,Turkey House & Deli,1433 King George Blvd,Surrey,Restaurant,49.02808652,-122.77243112
896,A018872    ,Ukrainian Orthodox Centre,13512 108 Ave,Surrey,Restaurant,49.19869626,-122.84755629
897,SHEN-ABJT3T,Ultimate Banquet Hall Ltd.,8072 120 St,Surrey,Restaurant,49.14988027,-122.89004908
898,GEDS-7NJ23W,Umami Sushi,17725 64 Ave,Surrey,Restaurant,49.11896193,-122.73213951
899,SPLH-ASQPDH,Uncle Fatih's Pizza (City Parkway),10277 City Pky,Surrey,Restaurant,49.18955259,-122.84788863
900,SHEN-A6LS5R,UR Restaurant,14752 108A Ave,Surrey,Restaurant,49.19953305,-122.8137167
901,NDAA-9RDVTT,Urban Masala Grill & Restaurant,12588 72 Ave,Surrey,Restaurant,49.13370717,-122.87384296
902,GEDS-69GNPL,Valley View Funeral Home,14660 72 Ave,Surrey,Restaurant,49.13357059,-122.81693171
903,GEDS-6UMNVV,Vault Restaurant,5764 176 St,Surrey,Restaurant,49.10710947,-122.7347772
904,GEDS-68DU3X,Vedic Hindu Cultural Society,8321 140 St,Surrey,Restaurant,49.152945,-122.83495027
905,GEDS-69MQ7C,Vege Garden Pizza & Coffee Shop,8383 128 St,Surrey,Restaurant,49.15512572,-122.86832975
906,SHEN-AP5SUE,Vegetarian Delite Bakery (Surrey),8078 128 St,Surrey,Restaurant,49.14934588,-122.86766368
907,NDAA-94NTVX,Veggie Hut Pizza & Pasta,7025 128 St,Surrey,Restaurant,49.13016942,-122.86815426
908,NDAA-8WPTK6,Venetis Pizza,9591 128 St,Surrey,Restaurant,49.17662407,-122.86824907
909,HCAR-AW722C,Veneto's Cakes & Pastries,7380 King George Blvd,Surrey,Restaurant,49.13673593,-122.84521073
910,SDFO-8BWQ2Y,Vera's Burger Shack,18660 Fraser Hwy,Surrey,Restaurant,49.12517282,-122.70550436
911,ACAK-8XLNGA,Vera's Burger Shack (Brickyard),17449 56 Ave,Surrey,Restaurant,49.10436925,-122.73987659
912,NDAA-9NYMJY,Victoria's Mexican Bakery,8056 King George Blvd,Surrey,Restaurant,49.14901035,-122.84525462
913,SHEN-ABMTMD,Viet City Restaurant,14779 108 Ave,Surrey,Restaurant,49.19888905,-122.8132608
914,NDAA-99YMF5,Village Sushi,18690 Fraser Hwy,Surrey,Restaurant,49.12447159,-122.70401783
915,NDAA-9EFTEB,Vina,10355 152 St,Surrey,Restaurant,49.19192585,-122.8042654
916,SDFO-8BWQEE,Vlassis Souvlaki & Greek Taverna,10028 King George Blvd,Surrey,Restaurant,49.18496531,-122.84497329
917,GEDS-7HQP4F,Wal-Mart #5853 - Deli/Bakery,2355 160 St,Surrey,Restaurant,49.04439297,-122.78143202
918,SHEN-A7TNAC,Wal-mart Supercentre #1205 - Deli,10153 King George Blvd,Surrey,Restaurant,49.18592247,-122.84584777
919,SWOD-AQFTDZ,Wally Lucie and Sons,12171 Sullivan St,Surrey,Restaurant,49.05577435,-122.88474906
920,SPLH-AUXN5M,Warehouse Lunch and Catering,8625 130 St,Surrey,Restaurant,49.15988079,-122.86274825
921,JDSO-ACFM44,Waves Coffee House,10777 University Dr,Surrey,Restaurant,49.19836169,-122.85109663
922,NDAA-AN9QFX,Wendy's #12,15959 Fraser Hwy,Surrey,Restaurant,49.15824302,-122.77930076
923,NDAA-ANGQWK,Wendy's #19,3077 152 St,Surrey,Restaurant,49.05767913,-122.80211251
924,NDAA-AN9QXE,Wendy's #25,17911 56 Ave,Surrey,Restaurant,49.10441232,-122.72669786
925,NDAA-AN9NET,Wendy's #4,9412 120 St,Surrey,Restaurant,49.1740025,-122.88991277
926,NDAA-AN9PBZ,Wendy's #9,10125 152 St,Surrey,Restaurant,49.18646016,-122.80117092
927,SHEN-AJUUR2,West Village Cafe,5620 152 St,Surrey,Restaurant,49.10489636,-122.80062619
928,NDAA-9MCQ88,Westin Pizza,7182 120 St,Surrey,Restaurant,49.13365221,-122.89011927
929,SWOD-APSPEM,Just Cakes Bakeshop,7548 120 St,Surrey,Restaurant,49.13980911,-122.89000345
930,SPLH-98MP89,K Pop Karaoke Restaurant,14914 104 Ave,Surrey,Restaurant,49.19133785,-122.80834707
931,SPLH-9P8T6J,Kababji Grill,15775 Croydon Dr,Surrey,Restaurant,49.04768716,-122.78492695
932,SHEN-ABMQBQ,Kairali Village Restaurant,12414 82 Ave,Surrey,Restaurant,49.15186633,-122.8785309
933,NDAA-9GVU9Z,Kalamaki Greek Grill,2711 192 St,Surrey,Restaurant,49.05150946,-122.6918208
934,SWOD-APPNNE,Kalmar Restaurant,8076 King George Blvd,Surrey,Restaurant,49.14970607,-122.84537937
935,A019244    ,Kam Wah Restaurant,9340 120 St,Surrey,Restaurant,49.17281582,-122.88992123
936,GEDS-6MNMCW,Kamal Sweets & Tandoori Hut,6977 128 St,Surrey,Restaurant,49.12968509,-122.86806435
937,GEDS-7SDLR2,Kami Japanese Restaurant,2215 160 St,Surrey,Restaurant,49.0420561,-122.77977157
938,NDAA-95HQ6Q,Kami Strawberry Hill Japanese Restaurant,12101 72 Ave,Surrey,Restaurant,49.13501849,-122.8876389
939,GEDS-69PR95,Keg Steakhouse & Bar #131,15180 32 Ave,Surrey,Restaurant,49.06140173,-122.80214642
940,GEDS-6VJPCQ,Keg Steakhouse & Bar (Scott Rd),7948 120 St,Surrey,Restaurant,49.14744796,-122.89006865
941,SHEN-A7WQC8,Kelly's Pub,7218 King George Blvd,Surrey,Restaurant,49.1343323,-122.84521322
942,PGOO-69BTQX,Ken's Cafe,5695 176 St,Surrey,Restaurant,49.10577127,-122.7352032
943,SDFO-8MCPDC,Ken's Tea House,10692 135A St,Surrey,Restaurant,49.19701092,-122.84669357
944,SHEN-ATTV6D,Kerala Kitchen,9386 120 St,Surrey,Restaurant,49.17370646,-122.88991729
945,NDAA-9NKTFG,Kernels,10355 152 St,Surrey,Restaurant,49.19192585,-122.8042654
946,NDAA-9BGPR8,KFC #017-001,10355 152 St,Surrey,Restaurant,49.19192585,-122.8042654
947,ACAK-8T9PGA,KFC #1818/Taco Bell,9056 152 St,Surrey,Restaurant,49.16739931,-122.8009639
948,ACAK-8T9NSX,KFC #1820/Taco Bell,13577 73rd Ave,Surrey,Restaurant,49.13524174,-122.84601841
949,SDFO-8HEPAH,KFC #1838,12121 72 Ave,Surrey,Restaurant,49.13426465,-122.88752283
950,NDAA-9HDUF4,Khalsa Diwan Society,7938 128 St,Surrey,Restaurant,49.14687516,-122.86577071
951,SHEN-APFQLS,Khalsa Rasoyee and Sweets,16055 Fraser Hwy,Surrey,Restaurant,49.1569391,-122.77710268
952,GEDS-66Z2DP,Khalsa School Cafeteria,6933 124 St,Surrey,Restaurant,49.12960441,-122.87927581
953,NDAA-9PPQAD,Khalsa Secondary School (High School),10677 124 St,Surrey,Restaurant,49.19613704,-122.87891244
954,A020053    ,Kid's Play Daycare Centre Food Service,12819 Old Yale Rd,Surrey,Restaurant,49.19765626,-122.86695902
955,SWOD-AEVR4M,Kids & Company (King George),9900 King George Blvd,Surrey,Restaurant,49.18235922,-122.84490698
956,SWOD-A83PU8,Kids & Company (Surrey Professional),13737 96 Ave,Surrey,Restaurant,49.17720977,-122.84275097
957,NDAA-A9PNQA,Kids & Company Morgan Crossing South Surrey,15715 Croydon Dr,Surrey,Restaurant,49.04822684,-122.78711568
958,KSMH-AQNNLT,Kids Play Cafe & Cafe Artistico,14885 60 Ave,Surrey,Restaurant,49.11196946,-122.8099226
959,GEDS-7K9VBQ,Kiki's Kitchen,7392 138 St,Surrey,Restaurant,49.13707808,-122.83840545
960,PGOO-662TRV,Kiki's Restaurant,1959 152 St,Surrey,Restaurant,49.03727504,-122.80146689
961,GEDS-65FPRC,Kim Hoang Restaurant,10330 152 St,Surrey,Restaurant,49.19027016,-122.80009284
962,GEDS-7A3RL8,Kimbelee Place,12935 96 Ave,Surrey,Restaurant,49.17733839,-122.86410244
963,A019679    ,Kimchi Palace Restaurant,6019 196 St,Surrey,Restaurant,49.11155799,-122.6802683
964,SPLH-AEPLC8,Kin Thai Kitchen & Bar,2443 161A St,Surrey,Restaurant,49.0469929,-122.77530006
965,NDAA-922NLC,King Do Restaurant,13922 104 Ave,Surrey,Restaurant,49.19134235,-122.83651183
966,SHEN-9PHPWJ,King George Pizza,7093 King George Blvd,Surrey,Restaurant,49.13100319,-122.84598983
967,SHEN-A2FL98,King Tut's Donair and Pizza,5691 177B St,Surrey,Restaurant,49.10579854,-122.73053374
968,SHEN-AP5PVE,Kingfisher,13569 105A Ave,Surrey,Restaurant,49.19459605,-122.84625652
969,PNEL-8RYR39,Kinsmen Lodge,9650 137A St,Surrey,Restaurant,49.17773169,-122.8417974
970,SHEN-9PXNWT,Knight & Day,9677 King George Blvd,Surrey,Restaurant,49.17836605,-122.84605968
971,SWOD-AHS22K,Koco Espresso,13585 16 Ave,Surrey,Restaurant,49.03142466,-122.8462418
972,GEDS-7YYQWY,Kohinoor Restaurant,12889 84 Ave,Surrey,Restaurant,49.15556846,-122.86572959
973,SHEN-A72RZ7,Kraft & Pizza Factory,2336 King George Blvd,Surrey,Restaurant,49.04468339,-122.79203148
974,GEDS-75NVFM,Krishnas Dosa Grill,8910 120 St,Surrey,Restaurant,49.16515223,-122.89006953
975,SPLH-9SZQG4,KSP Shahi Catering & Sweets,12815 85 Ave,Surrey,Restaurant,49.15759827,-122.86744072
976,JDSO-ACGNVG,Kubyertos Lechon House,8140 120 St,Surrey,Restaurant,49.15114002,-122.89006646
977,NDAA-9BHTGZ,Kung Pao Wok,10355 152 St,Surrey,Restaurant,49.19192585,-122.8042654
978,JDSO-ACMM6Y,KW Gardens Chinese Cuisine,2338 King George Blvd,Surrey,Restaurant,49.04476621,-122.79211858
979,NDAA-9B3QS3,Kwan Kee Noodle House,15277 100 Ave,Surrey,Restaurant,49.1844401,-122.79879019
980,A020029    ,Kwantlen Park Secondary School Cafeteria,10441 132 St,Surrey,Restaurant,49.19222044,-122.85667971
981,SDFO-8KMTQB,Kwantlen Pizza Sweets & Snacks,15122 72 Ave,Surrey,Restaurant,49.13351251,-122.8026091
982,SHEN-9PHLGV,Kwantlen Pizza Sweets & Snacks,12578 72 Ave,Surrey,Restaurant,49.13327245,-122.87415958
983,GEDS-68HS4Q,Kyoto Sushi Japanese Restaurant,13651 72 Ave,Surrey,Restaurant,49.13373649,-122.84401015
984,A020119    ,La Charcuterie Deli,19080 96 Ave,Surrey,Restaurant,49.1768378,-122.69441522
985,SWOD-A58Q7W,La Conquistadora de Pablo,10511 King George Blvd,Surrey,Restaurant,49.19366523,-122.84560459
986,KSMH-ASUUGL,La D'Amico Pizza,13916 Grosvenor Rd,Surrey,Restaurant,49.20368515,-122.83634833
987,A016961    ,LA Matheson Secondary School,9484 122 St,Surrey,Restaurant,49.17529188,-122.88439706
988,PNEL-8RHMJZ,La Tandoori Pick & Go Restaurant,7743 128 St,Surrey,Restaurant,49.14346097,-122.86817479
989,JDSO-ACMMJJ,La Van Tea,1688 152 St,Surrey,Restaurant,49.03243524,-122.80089314
990,SWOD-9Y2MB7,Lahori Sweets & Restaurant,12877 80 Ave,Surrey,Restaurant,49.14842952,-122.86514353
991,PGOO-665TGZ,Lakwon Rice Bakery,12520 Old Yale Rd,Surrey,Restaurant,49.19705281,-122.87538776
992,A014563    ,Westminster House Food Service,1653 140 St,Surrey,Restaurant,49.03243638,-122.83638426
993,A019219    ,Whalley Ball Park Green Concession,13350 105A Ave,Surrey,Restaurant,49.19308605,-122.85269019
994,S003239    ,Whalley Little League Concession - Major Diamond,13350 105A Ave,Surrey,Restaurant,49.19308605,-122.85269019
995,A018869    ,Whalley Round-up Cafe,10449 King George Blvd,Surrey,Restaurant,49.19258975,-122.84564478
996,SPLH-ASQPK5,What The Pho,13655 72 Ave,Surrey,Restaurant,49.13373951,-122.84391651
997,GEDS-6Q4UFR,White Spot #629,10181 152 St,Surrey,Restaurant,49.18706468,-122.80131233
998,A019600    ,White Spot #633,1681 152 St,Surrey,Restaurant,49.03298204,-122.80167209
999,GEDS-6FYVJP,White Spot #658,13580 102 Ave,Surrey,Restaurant,49.18766811,-122.84597994
1000,SDFO-8HCV64,White Spot (Morgan Crossing),15877 Croydon Dr,Surrey,Restaurant,49.04615548,-122.78245741
1001,NDAA-9DGPS6,Whitecliff Residence Foods Services,15501 16 Ave,Surrey,Restaurant,49.03127682,-122.7930744
1002,ACAK-97GPH7,Wild Wing,7322 King George Blvd,Surrey,Restaurant,49.1353508,-122.84515819
1003,A020459    ,Wings Tap And Grill,7124 King George Blvd,Surrey,Restaurant,49.13216781,-122.84503648
1004,SDFO-8G3PVK,Wired Monk Coffee Bistro (60th Ave),16811 60 Ave,Surrey,Restaurant,49.1116968,-122.75632129
1005,GEDS-7SDM3H,Wok Box (Grandview Corners),2285 160 St,Surrey,Restaurant,49.04321227,-122.78006799
1006,SHEN-AP5Q5S,World Famous Chicken World,12842 96 Ave,Surrey,Restaurant,49.17696476,-122.86655037
1007,SHEN-9X3LYQ,WRSSBA (White Rock South Surrey Baseball Association) Concessio,14600 20 Ave,Surrey,Restaurant,49.03803115,-122.81592277
1008,GEDS-78BTNS,X-Fuel Nutrition Inc,7635 King George Blvd,Surrey,Restaurant,49.14164135,-122.84596077
1009,SWOD-AG7UK4,Yakko Sushi,19537 Fraser Hwy,Surrey,Restaurant,49.11499575,-122.68167777
1010,NDAA-965PJR,Yale Road Centre - Food Services,13333 Old Yale Rd,Surrey,Restaurant,49.1868728,-122.85343393
1011,SPLH-ASUT3X,Yamako Japanese Restaurant,15355 24 Ave,Surrey,Restaurant,49.04583671,-122.79750443
1012,GEDS-7GZU35,YL's Curry Bowl,15277 100 Ave,Surrey,Restaurant,49.1844401,-122.79879019
1013,SWOD-AF5LU9,Yo-Good,10153 King George Blvd,Surrey,Restaurant,49.18592247,-122.84584777
1014,SHEN-AKQP9B,Yogen Fruz (Guildford),10355 152 St,Surrey,Restaurant,49.19192585,-122.8042654
1015,SPLH-9P8Q6K,Yoko Sushi & Noodle House,16013 Fraser Hwy,Surrey,Restaurant,49.15736772,-122.77831415
1016,SYOG-5M55QU,Zion Park Manor Food Service,5939 180 St,Surrey,Restaurant,49.11004416,-122.72400029
1017,SPLH-9NEUHG,Zugba Flame Grilled Chicken,14351 104 Ave,Surrey,Restaurant,49.19172759,-122.82418348
1018,SWOD-AJ7SHT,Zyka Restaurant,2755 192 St,Surrey,Restaurant,49.05247451,-122.69181713
1019,SPLH-9KHPNC,Landmark Cinemas 12 Guildford Surrey - Concession,15051 101 Ave,Surrey,Restaurant,49.18627117,-122.80501922
1020,SPLH-9KHS7E,Landmark Cinemas 12 Guildford Surrey - Pizza Pizza,15051 101 Ave,Surrey,Restaurant,49.18627117,-122.80501922
1021,SHEN-A7LPGD,Lark Care (Laurel) Operations Ltd.,9688 137A St,Surrey,Restaurant,49.17842207,-122.84178025
1022,SDFO-8DFUST,Launching Pad,984 160 St,Surrey,Restaurant,49.0199688,-122.77899078
1023,SPLH-ARLUG4,Lazeez Pizza,9014 152 St,Surrey,Restaurant,49.16697429,-122.79924081
1024,JDSO-AD3QH2,Leaf Tea,1618 152 St,Surrey,Restaurant,49.03148525,-122.80089676
1025,SPLH-9P2P7K,Lee Gar Nei K-Food,15280 101 Ave,Surrey,Restaurant,49.18597274,-122.79860311
1026,SWOD-AHZUMF,Lee Yuen Seafood Restaurant,14755 104 Ave,Surrey,Restaurant,49.19166808,-122.8136896
1027,NDAA-9YQU3K,Lee's Express Chinese Food,9181 148 St,Surrey,Restaurant,49.16969397,-122.81243131
1028,GEDS-65GNXR,Lighthouse Fish & Chips,9631 128 St,Surrey,Restaurant,49.17753881,-122.86809344
1029,SPLH-AAATM9,Lighthouse Fresh & Tasty (88th Ave Surrey),12499 88 Ave,Surrey,Restaurant,49.16335778,-122.8766604
1030,GEDS-7UUR33,Lighthouse Fresh and Tasty,8050 King George Blvd,Surrey,Restaurant,49.14889075,-122.84525499
1031,GEDS-7GRTFY,Links Lunch Program,14727 108 Ave,Surrey,Restaurant,49.19889521,-122.81445637
1032,GEDS-6BEQ5E,Little Caesars Pizza #456-003,7135 138 St,Surrey,Restaurant,49.13246636,-122.83915946
1033,A014053    ,Little Caesars Pizza #456-004,12830 96 Ave,Surrey,Restaurant,49.17696905,-122.86709444
1034,A017919    ,Little Caesars Pizza #456-006,8888 152A St,Surrey,Restaurant,49.16418147,-122.79941439
1035,HCAR-AUFSB5,Little Caesars Pizza #4889-0001,3041 152 St,Surrey,Restaurant,49.05731993,-122.80208925
1036,JDSO-ADSLBL,Little Cloud Coffee,10422 168 St,Surrey,Restaurant,49.19205936,-122.75625586
1037,SPLH-9KKPBC,Little Greek Restaurant,19110 96 Ave,Surrey,Restaurant,49.17682471,-122.69318085
1038,NDAA-9NVSPB,Little Tea House (Surrey),15277 100 Ave,Surrey,Restaurant,49.1844401,-122.79879019
1039,A016876    ,Lord Tweedsmuir Secondary School Cafeteria,6151 180 St,Surrey,Restaurant,49.11445485,-122.72404012
1040,RORS-6732A2,Lovely Sweets & Restaurant,7168 128 St,Surrey,Restaurant,49.13296455,-122.86756983
1041,LCAL-6TNQTM,Lucky Horse Restaurant (72nd Ave),13737 72 Ave,Surrey,Restaurant,49.13374407,-122.84177068
1042,GEDS-68TMHX,M Bar,10680 151A St,Surrey,Restaurant,49.19631227,-122.8024303
1043,ACAK-985SVG,Mac's Convenience Store #1094,13192 104 Ave,Surrey,Restaurant,49.19151202,-122.85697718
1044,A020070    ,Mac's Convenience Store #11095,1751 King George Blvd,Surrey,Restaurant,49.03381391,-122.77953123
1045,SWOD-9Y7LFB,Mac's Convenience Store #11096,14820 108 Ave,Surrey,Restaurant,49.19856643,-122.81190569
1046,NDAA-A4NNSC,Mac's Convenience Store #11109,13983 16 Ave,Surrey,Restaurant,49.03139493,-122.83462759
1047,SPLH-9KKLFZ,Mac's Convenience Store #11159,8007 King George Blvd,Surrey,Restaurant,49.1485101,-122.84605304
1048,JDSO-ADQPYF,Madras Club House,13737 72 Ave,Surrey,Restaurant,49.13374407,-122.84177068
1049,SHEN-A47S4X,Maguro Japanese Restaurant,10090 152 St,Surrey,Restaurant,49.18575463,-122.80058146
1050,NDAA-A4NQ5T,Maguroguy Asian Cuisine,2670 152 St,Surrey,Restaurant,49.05026809,-122.80093219
1051,NDAA-98FRJN,Maharaja Banquet Hall,8148 128 St,Surrey,Restaurant,49.15057771,-122.86483054
1052,GEDS-7UDLSN,Maharaja Catering,8148 128 St,Surrey,Restaurant,49.15057771,-122.86483054
1053,SWOD-A45NPC,Mahaveer Chef's Choice,10227 King George Blvd,Surrey,Restaurant,49.18849999,-122.8457129
1054,A019865    ,Mahek Chat House,8556 120 St,Surrey,Restaurant,49.15831669,-122.8900703
1055,GEDS-6ZBMVJ,Mahek Restaurant & Lounge,9470 120 St,Surrey,Restaurant,49.17490502,-122.8899125
1056,NDAA-92AQSX,Main Choice Chinese Restaurant,13393 72 Ave,Surrey,Restaurant,49.13381313,-122.85180728
1057,GEDS-82XR84,Mal Li Jang Sung,13648 105A Ave,Surrey,Restaurant,49.19427961,-122.84400736
1058,GEDS-5YFNWJ,Malaysian Hut Restaurant,14727 108 Ave,Surrey,Restaurant,49.19889521,-122.81445637
1059,SWOD-9XCQUH,Malone's Delicatessen & Fine Foods,12901 16 Ave,Surrey,Restaurant,49.03150214,-122.86510087
1060,ACAK-8TMV2A,Mama Mia Gelato / Noor Mahal,7130 120 St,Surrey,Restaurant,49.13256483,-122.88946309
1061,GEDS-6Y2SA8,Man Seng Kitchen,14770 108A Ave,Surrey,Restaurant,49.19952855,-122.81343614
1062,SHEN-9PAVDQ,Manis Restaurant,10768 Whalley Blvd,Surrey,Restaurant,49.19795341,-122.84208475
1063,DMIL-8L2MUQ,Manohar Vegetarian Bakery,8120 128 St,Surrey,Restaurant,49.14939795,-122.8660477
1064,SWOD-APTQ8E,Manohar Vegetarian Bakery - Fleetwood,15905 Fraser Hwy,Surrey,Restaurant,49.15907102,-122.78175449
1065,SHEN-AU2T99,Maple Pizza and Grace Market,10063 117 St,Surrey,Restaurant,49.1856248,-122.89888439
1066,SHEN-AMWPLX,Maple Sushi Japanese Restaurant,2385 King George Blvd,Surrey,Restaurant,49.04487841,-122.79424559
1067,SWOD-AHFSWE,Marble Slab Creamery (160th St),2245 160 St,Surrey,Restaurant,49.04289123,-122.77955252
1068,SDFO-8H8NUP,Marini Italian Foods,15151 Fraser Hwy,Surrey,Restaurant,49.16683625,-122.80287193
1069,GEDS-6FCSSR,Martino's Cappuccino and Coffee Bar,12211 Beecher St,Surrey,Restaurant,49.0525937,-122.8836791
1070,JDSO-ACNPRH,MasQueSolo Sushi and Kitchen,5827 176 St,Surrey,Restaurant,49.10833316,-122.73518228
1071,NDAA-ALQNX9,Mastro Pizza,1959 152 St,Surrey,Restaurant,49.03727504,-122.80146689
1072,GEDS-6R5QAM,Maxim's Bakery (Surrey),10153 King George Blvd,Surrey,Restaurant,49.18592247,-122.84584777
1073,GEDS-82XQBH,Maxxine Wright Community Health Centre,13733 92 Ave,Surrey,Restaurant,49.17026706,-122.84242911
1074,GEDS-6FCQBD,Mayuri Indian Cuisine,12677 80 Ave,Surrey,Restaurant,49.14843217,-122.87145892
1075,JDSO-AC7T7X,McDonald's # 40141,12451 88 Ave,Surrey,Restaurant,49.16571006,-122.87768487
1076,JDSO-ACAMN8,McDonald's #22357,14476 104 Ave,Surrey,Restaurant,49.19131349,-122.82080212
1077,SWOD-AFTRCP,McDonald's #8240,1789 152 St,Surrey,Restaurant,49.03413084,-122.80146628
1078,A019243    ,McDonald's #8249,12930 96 Ave,Surrey,Restaurant,49.17695672,-122.8646301
1079,A018086    ,McDonald's #8250,13565 72 Ave,Surrey,Restaurant,49.13372548,-122.84680936
1080,A016803    ,McDonald's #8399,8586 120 St,Surrey,Restaurant,49.15930513,-122.89007979
1081,A016843    ,McDonald's #8434,15574 Fraser Hwy,Surrey,Restaurant,49.16195612,-122.79133668
1082,A017233    ,McDonald's #8550,11011 Scott Rd,Surrey,Restaurant,49.20265513,-122.87916571
1083,A017472    ,McDonald's #8606,6333 King George Blvd,Surrey,Restaurant,49.11831829,-122.84583582
1084,A018520    ,McDonald's #8616,17635 64 Ave,Surrey,Restaurant,49.1189676,-122.73375649
1085,SHEN-AGKQYB,McDonald's #8688,3104 King George Blvd,Surrey,Restaurant,49.05869324,-122.80918105
1086,SHEN-AGKQRM,McDonald's #8957,2355 160 St,Surrey,Restaurant,49.04439297,-122.78143202
1087,GEDS-68HREG,McDonald's (Cloverdale),17960 56 Ave,Surrey,Restaurant,49.10399281,-122.72524251
1088,GEDS-68HQ9E,McDonald's (Tynehead),9638 160 St,Surrey,Restaurant,49.17750205,-122.77845696
1089,JDSO-AC4M2W,McDonald's Restaurant of Canada # 1196,10240 King George Blvd,Surrey,Restaurant,49.18861735,-122.84507969
1090,GEDS-7LLUH7,McJac's Roadhouse Grille Restaurant,1781 King George Blvd,Surrey,Restaurant,49.03425714,-122.78005519
1091,GEDS-76LL6L,Mediterranean Pita Bakery,12950 80 Ave,Surrey,Restaurant,49.14796994,-122.86372443
1092,GEDS-6XLUHV,Mehfil India Restaurant & Sweets,9570 120 St,Surrey,Restaurant,49.17657841,-122.88986114
1093,NDAA-8Y9UZA,Mek's Delight,14910 104 Ave,Surrey,Restaurant,49.19134073,-122.80856143
1094,MMAR-873Q9Y,Memphis Blues BBQ,18690 Fraser Hwy,Surrey,Restaurant,49.12447159,-122.70401783
1095,NDAA-A4FVF4,Menchie's #633,15146 100 Ave,Surrey,Restaurant,49.18396932,-122.80224523
1096,SHEN-A3BV36,Menchies Frozen Yogurt - Morgan Crossing,15775 Croydon Dr,Surrey,Restaurant,49.04768716,-122.78492695
1097,SDFO-8ACT64,Mercy Ministries - Residential Care Service,19465 16 Ave,Surrey,Restaurant,49.031285,-122.68419627
1098,A019337    ,Meridian Par 3,1054 168 St,Surrey,Restaurant,49.0211776,-122.7563544
1099,HCAR-AWERFN,Mezbaan (Indo Chinese Food),12790 96 Ave,Surrey,Restaurant,49.17702781,-122.86845856
1100,SYOG-5M57KL,Michael's Artisan Bakery,15578 24 Ave,Surrey,Restaurant,49.04542303,-122.79075466
1101,ACAK-9BETPK,Migoto Sushi/Guildford,10355 152 St,Surrey,Restaurant,49.19192585,-122.8042654
1102,GEDS-6A5PPP,Milestone's (South Point),3085 152 St,Surrey,Restaurant,49.05783493,-122.80213247
1103,NDAA-9RTTCV,Milestones Restaurants,10355 152 St,Surrey,Restaurant,49.19192585,-122.8042654
1104,HCAR-AU7R9T,Miltomates,9613 192 St,Surrey,Restaurant,49.17736128,-122.69071803
1105,SWOD-AHQPLH,Ming Yan Seafood Restaurant,3238 King George Blvd,Surrey,Restaurant,49.06094416,-122.81190509
1106,SDFO-89YT2W,Mink A Chocolate Cafe,15775 Croydon Dr,Surrey,Restaurant,49.04768716,-122.78492695
1107,PGOO-68KPB5,Mirage Banquet Hall,17767 64 Ave,Surrey,Restaurant,49.11898358,-122.7302435
1108,NDAA-9A4TF2,Misan Cafe,17918 55 Ave,Surrey,Restaurant,49.10215491,-122.72621603
1109,JDSO-ADSL2J,Miyagi Japanese Restaurant,8556 120 St,Surrey,Restaurant,49.15831669,-122.8900703
1110,SPLH-9KJSG4,Momotaro Japanese Restaurant,3189 King George Blvd,Surrey,Restaurant,49.05963853,-122.81161686
1111,GEDS-6RUV4W,Mongolie Grill,19583 Fraser Hwy,Surrey,Restaurant,49.1143158,-122.68019515
1112,SHEN-AEDLBR,Montana's Cookhouse #3079,16071 24 Ave,Surrey,Restaurant,49.04581506,-122.77701804
1113,A020245    ,Morgan Creek Golf Course - Kitchen,3500 Morgan Creek Way,Surrey,Restaurant,49.06494761,-122.78195759
1114,A020246    ,Morgan Creek Golf Course - Lounge,3500 Morgan Creek Way,Surrey,Restaurant,49.06494761,-122.78195759
1115,A020247    ,Morgan Creek Golf Course - Snack Bar,3500 Morgan Creek Way,Surrey,Restaurant,49.06494761,-122.78195759
1116,SODN-66TNK5,Morgan Place Food Service,3288 156A St,Surrey,Restaurant,49.06136888,-122.78995003
1117,GEDS-7F9PV7,Morrison Cafe,12855 16 Ave,Surrey,Restaurant,49.03144488,-122.86587163
1118,GEDS-68TMF7,Moxie's Classic Grill (Surrey),10680 151A St,Surrey,Restaurant,49.19631227,-122.8024303
1119,SWOD-APSMWX,Mr Pei Restaurant,1724 152 St,Surrey,Restaurant,49.03325282,-122.80094029
1120,SDFO-88HKXS,Mr Pickwick's Fish & Chips & Seafood Restaurant,12884 96 Ave,Surrey,Restaurant,49.17705892,-122.8649362
1121,SHEN-ABRQQJ,Mucho Burrito (Fresh Mexican Restaurant),9666 King George Blvd,Surrey,Restaurant,49.1787182,-122.84525863
1122,SHEN-AKHT58,Mughal Palace Restaurant,12827 76 Ave,Surrey,Restaurant,49.14117557,-122.86715502
1123,GEDS-7MU2N7,Murchie's Tea & Coffee,1711 152 St,Surrey,Restaurant,49.0331143,-122.80166897
1124,A018517    ,My Greek Taverna,6450 120 St,Surrey,Restaurant,49.12012336,-122.89008046
1125,SPLH-9KHTLN,My Shanti,15869 Croydon Dr,Surrey,Restaurant,49.04600869,-122.78246915
1126,GEDS-84NQEZ,Nagoya,9175 148 St,Surrey,Restaurant,49.1697757,-122.81250597
1127,SDFO-8EHMF4,Nahm Thai Bistro,13650 102 Ave,Surrey,Restaurant,49.18765816,-122.84367954
1128,HCAR-ASHTLJ,Namhansansung,14787 108 Ave,Surrey,Restaurant,49.1988845,-122.81300687
1129,ACAK-9AJQYX,Nando's Chicken (Guildford),15190 101 Ave,Surrey,Restaurant,49.18595731,-122.80167417
1130,SPLH-9KKMB7,Nando's Chicken (White Rock),3010 152 St,Surrey,Restaurant,49.05677309,-122.8009278
1131,NDAA-9NTQ34,Nando's Flame-Grilled Chicken,12101 72 Ave,Surrey,Restaurant,49.13501849,-122.8876389
1132,SDFO-894NSA,Nav Sweets and Restaurant,8140 120 St,Surrey,Restaurant,49.15114002,-122.89006646
1133,NDAA-8YSPY4,Navraj Sweets & Restaurant,8148 128 St,Surrey,Restaurant,49.15057771,-122.86483054
1134,ACAK-985LYR,Neptune Seafood Restaurant & Neptune Wonton Noodle,10153 King George Blvd,Surrey,Restaurant,49.18592247,-122.84584777
1135,HCAR-AU9VCN,Nesters Market - Deli Department,10835 City Pky,Surrey,Restaurant,49.19953285,-122.84905856
1136,SODN-672P3Z,Nesters Market Deli & Bakery,16033 108 Ave,Surrey,Restaurant,49.1989669,-122.77775438
1137,SHEN-A3NP96,New Asian Spice,9436 120 St,Surrey,Restaurant,49.17436505,-122.88994597
1138,NDAA-9NYPNB,New Express Pizza,13654 Grosvenor Rd,Surrey,Restaurant,49.19969218,-122.84376141
1139,GEDS-666UND,New Frontier Club House,9803 140 St,Surrey,Restaurant,49.18060228,-122.83461398
1140,GEDS-7UENZQ,New Greenwood Lodge,13227 96 Ave,Surrey,Restaurant,49.17726771,-122.85604025
1141,PNEL-6VEUBC,New Gulberg Market & Halal Meats,12578 72 Ave,Surrey,Restaurant,49.13327245,-122.87415958
1142,NDAA-8YSTH8,New Hollywood Cinema,7125 138 St,Surrey,Restaurant,49.13221632,-122.83916334
1143,A019335    ,New Life Child Care Centre,8868 128 St,Surrey,Restaurant,49.16375394,-122.86780436
1144,A019922    ,New Town Bakery & Restaurant,10302 City Pky,Surrey,Restaurant,49.18995809,-122.84739212
1145,HCAR-ASHLNU,New Wave Pizza & Convenience Store,7388 137 St,Surrey,Restaurant,49.13689692,-122.84259253
1146,NDAA-9CXRN3,New York Fries,10355 152 St,Surrey,Restaurant,49.19192585,-122.8042654
1147,A018563    ,New York New York Greek Restaurant,6361 152 St,Surrey,Restaurant,49.1184735,-122.80139349
1148,SDFO-8MXR43,Newton Arena,7120 136B St,Surrey,Restaurant,49.13202916,-122.84321193
1149,A016864    ,Newton Canadian Baseball Association,13313 68 Ave,Surrey,Restaurant,49.12658168,-122.85382394
1150,A018064    ,Newton Pizza,6828 128 St,Surrey,Restaurant,49.12696263,-122.86753123
1151,GEDS-738QQL,Newton Pizza (64th Ave),18408 64 Ave,Surrey,Restaurant,49.11859295,-122.71198875
1152,ACAK-8UDNUP,Newton Pizza (South Surrey),2570 King George Blvd,Surrey,Restaurant,49.04892267,-122.79710817
1153,A018188    ,Newton Seniors Centre,13775 70 Ave,Surrey,Restaurant,49.13016114,-122.84093022
1154,ACAK-985M8K,Next Level Fitness,13569 76 Ave,Surrey,Restaurant,49.1409873,-122.84704773
1155,NDAA-9S2QL6,Nickel's Bakery and Krakus Deli,10675 King George Blvd,Surrey,Restaurant,49.19673312,-122.84561282
1156,SPLH-AS8TP6,Nielsen's Your Independent Grocer - Deli,18765 Fraser Hwy,Surrey,Restaurant,49.12529104,-122.7023653
1157,SDFO-87RMVS,Nightshift Street Ministries (kitchen),10635 King George Blvd,Surrey,Restaurant,49.1957928,-122.84543643
1158,A017608    ,Nikko Sushi (Cloverdale),5676 176 St,Surrey,Restaurant,49.10555097,-122.73476691
1159,GEDS-7KMPWY,Ninja Sushi Japanese Restaurant,19475 Fraser Hwy,Surrey,Restaurant,49.11542665,-122.68277875
1160,SWOD-AHJP6S,Non Stop Pizza & Curry,19188 72 Ave,Surrey,Restaurant,49.13346587,-122.69157627
1161,GEDS-69LMHM,Non Stop Pizza (120th St),7500 120 St,Surrey,Restaurant,49.13913715,-122.8900684
1162,GEDS-7XFNQZ,Non Stop Sweets & Restaurant,15272 Fraser Hwy,Surrey,Restaurant,49.16507512,-122.79930582
1163,HCAR-ATHUTY,Noodlebox,15785 Croydon Dr,Surrey,Restaurant,49.0472666,-122.78436901
1164,SHEN-AU2QL6,Noor Sweets and Restaurant,13588 88 Ave,Surrey,Restaurant,49.16252802,-122.84686461
1165,GEDS-7N929H,Nordel Sushi,12080 Nordel Way,Surrey,Restaurant,49.16109806,-122.8886041
1166,A018006    ,North Surrey Arena Concession,10275 City Pky,Surrey,Restaurant,49.18937765,-122.84871196
1167,A018909    ,North Surrey Minor Football Track Concession,13750 88 Ave,Surrey,Restaurant,49.16216661,-122.84241304
1168,A016730    ,North Surrey Secondary School Cafeteria,15945 96 Ave,Surrey,Restaurant,49.17706626,-122.78033999
1169,A018238    ,Northview Golf & Country Club (Canal Kiosk),6857 168 St,Surrey,Restaurant,49.12596694,-122.75822609
1170,A018273    ,Northview Golf & Country Club (Kitchen/Duffey's Sports Grill),6857 168 St,Surrey,Restaurant,49.12596694,-122.75822609
1171,A018235    ,Northview Golf & Country Club (Palmer Dining Room),6857 168 St,Surrey,Restaurant,49.12596694,-122.75822609
1172,A018365    ,Northview Golf & Country Club (Ridge Kiosk),6857 168 St,Surrey,Restaurant,49.12596694,-122.75822609
1173,GEDS-646TNK,Notti Biscotti,15252 32 Ave,Surrey,Restaurant,49.06101028,-122.79846961
1174,GEDS-69G2FV,Occasions at the Pond,14245 56 Ave,Surrey,Restaurant,49.10531865,-122.82796619
1175,KSMH-AU3S8P,Ocean Park Donair,12867 16 Ave,Surrey,Restaurant,49.03150343,-122.8657544
1176,JDSO-ACGS7Y,Ocean Park Pizza,13186 104 Ave,Surrey,Restaurant,49.19151483,-122.85719265
1177,GEDS-6QPNYJ,Ocean Park Pizza & Village Pub,12822 16 Ave,Surrey,Restaurant,49.03112769,-122.86680782
1178,SDFO-88QSPT,Ocean Park Pizza (72nd Ave),12818 72 Ave,Surrey,Restaurant,49.13371285,-122.86737908
1179,MARO-AWVP8R,Oh So Sweet Sugar Boutique,12101 72 Ave,Surrey,Restaurant,49.13501849,-122.8876389
1180,NDAA-92UNDS,Old Surrey Restaurant,13483 72 Ave,Surrey,Restaurant,49.13375295,-122.84888847
1181,RORS-5ZXQPD,Omega Pizza & Wings,7577 King George Blvd,Surrey,Restaurant,49.14042433,-122.84594096
1182,GEDS-7FAR6Z,Omega Pizza & Wings (152nd St),9965 152 St,Surrey,Restaurant,49.18379312,-122.80127286
1183,A019565    ,On Yuen Restaurant,9014 152 St,Surrey,Restaurant,49.16697429,-122.79924081
1184,SHEN-AJDQCL,One More Thai Restaurant,7158 120 St,Surrey,Restaurant,49.13337244,-122.88992652
1185,SHEN-A3NLE3,One Up Cafe,2755 192 St,Surrey,Restaurant,49.05247451,-122.69181713
1186,MMAR-7YMNCT,OPA Souvlaki of Greece (Surrey),10153 King George Blvd,Surrey,Restaurant,49.18592247,-122.84584777
1187,SPLH-9LFPJW,OPA! of Greece,10355 152 St,Surrey,Restaurant,49.19192585,-122.8042654
1188,SPLH-9URRSS,OPA! Souvlaki (Grandview Corners),2245 160 St,Surrey,Restaurant,49.04289123,-122.77955252
1189,SDFO-8FWNRZ,Orange Julius,10153 King George Blvd,Surrey,Restaurant,49.18592247,-122.84584777
1190,GEDS-7ENSTB,Orange Julius (White Rock),1711 152 St,Surrey,Restaurant,49.0331143,-122.80166897
1191,GEDS-6M32JU,Oriental Buffet,15140 101 Ave,Surrey,Restaurant,49.18595325,-122.80215538
1192,GEDS-7NJ2JT,Original Bhaia Sweet Shop,15299 68 Ave,Surrey,Restaurant,49.12656472,-122.79923406
1193,GEDS-7ZPMT4,Otter Gas Bar @ Surrey,16788 104 Ave,Surrey,Restaurant,49.1914658,-122.75688889
1194,NDAA-966PCS,Outtakes,12161 72 Ave,Surrey,Restaurant,49.13501244,-122.88650119
1195,GEDS-772UVP,Pacific Academy,10238 168 St,Surrey,Restaurant,49.18891871,-122.75623984
1196,GEDS-7X2MK9,Pacific Billiards and Snookers,13774 104 Ave,Surrey,Restaurant,49.19140906,-122.84064464
1197,NDAA-9FVSNK,Pacific Bistro and Convenience Store,382 175A St,Surrey,Restaurant,49.00903312,-122.73593331
1198,RORS-5U6QTF,Pacific Carlton,15366 17 Ave,Surrey,Restaurant,49.03276382,-122.79637449
1199,NDAA-9FJTXM,Pacific Community Church,5337 180 St,Surrey,Restaurant,49.09979624,-122.72419535
1200,NDAA-9B3TGR,Pacific Kabab Hut & Catering,10731 King George Blvd,Surrey,Restaurant,49.19765626,-122.84570369
1201,A018215    ,Pacific Life Bible College Cafeteria,15100 66A Ave,Surrey,Restaurant,49.12335647,-122.80362786
1202,SWOD-AF3QGR,Pacific Pizza,12817 Old Yale Rd,Surrey,Restaurant,49.19783731,-122.86702045
1203,NDAA-9AZT2Q,Pacifica Retirement Residence,2525 King George Blvd,Surrey,Restaurant,49.04778017,-122.7976604
1204,A019866    ,Pak Punjab Sweets & Somosas House,12835 96 Ave,Surrey,Restaurant,49.17731947,-122.86660146
1205,SPLH-9P9LLM,Pakwan House,13030 76 Ave,Surrey,Restaurant,49.14081751,-122.86117413
1206,SPLH-9NKPBX,Palmyra Mediterranean Grill,10020 152 St,Surrey,Restaurant,49.18460092,-122.80059474
1207,HCAR-AUNR89,Panago #022,16120 24 Ave,Surrey,Restaurant,49.04472384,-122.776141
1208,A019660    ,Panago #07,14851 108 Ave,Surrey,Restaurant,49.1994351,-122.81019765
1209,SODN-65HUKF,Panago #10,8556 120 St,Surrey,Restaurant,49.15831669,-122.8900703
1210,GEDS-7BRP3Y,Panago #23,7320 King George Blvd,Surrey,Restaurant,49.13512719,-122.84513975
1211,A019251    ,Panago #32,15420 Fraser Hwy,Surrey,Restaurant,49.1635911,-122.79556223
1212,NDAA-93TVRY,Panago #65,12840 16 Ave,Surrey,Restaurant,49.03114098,-122.86620632
1213,SDFO-8LML24,Panago #80,5669 176A St,Surrey,Restaurant,49.10533344,-122.73387815
1214,NDAA-985Q3P,Panago Pizza #34,7310 120 St,Surrey,Restaurant,49.1357896,-122.89000833
1215,NDAA-9DSUU7,Panda Szechuan,3099 152 St,Surrey,Restaurant,49.05809016,-122.80213669
1216,GEDS-6TEV3Q,Panorama Ridge Secondary School Food Service,13220 64 Ave,Surrey,Restaurant,49.11879109,-122.85498745
1217,SPLH-AS8T5E,Papa Joe's Pizza,16055 Fraser Hwy,Surrey,Restaurant,49.1569391,-122.77710268
1218,SDFO-8JBLH9,Papa John's Pizza #009770 (Surrey),10320 152 St,Surrey,Restaurant,49.19010913,-122.80059715
1219,SWOD-AHBR8X,Papa John's Pizza (South Surrey),2245 160 St,Surrey,Restaurant,49.04289123,-122.77955252
1220,NDAA-99WQ7U,Papa Murphy`s Take N Bake Pizza,15355 24 Ave,Surrey,Restaurant,49.04583671,-122.79750443
1221,GEDS-82XN83,Parkland Fellowship,9574 160 St,Surrey,Restaurant,49.17636906,-122.77856423
1222,GEDS-65FUQU,Parkland Food Market,8270 144 St,Surrey,Restaurant,49.15336924,-122.82312417
1223,SHEN-9PXP43,Parmar Sweets & Restaurant Ltd,13647 72 Ave,Surrey,Restaurant,49.13373657,-122.8442029
1224,SHEN-9ZWTDU,Pasta Vino Trattoria & Bar,15355 24 Ave,Surrey,Restaurant,49.04583671,-122.79750443
1225,A020208    ,Path to Freedom Treatment Centre,19030 56 Ave,Surrey,Restaurant,49.10421009,-122.69550705
1226,SDFO-8HKP7E,Pattullo A&W,12808 King George Blvd,Surrey,Restaurant,49.20610961,-122.8668064
1227,SHEN-A47R49,Payal Chaat House & Restaurant,12877 80 Ave,Surrey,Restaurant,49.14842952,-122.86514353
1228,SYOG-5M546R,Peace Portal Alliance Church - Commercial Kitchen,15128 27B Ave,Surrey,Restaurant,49.05269784,-122.80344077
1229,PNEL-6HRRVX,Peace Portal Alliance Church - Servery,15128 27B Ave,Surrey,Restaurant,49.05269784,-122.80344077
1230,A019654    ,Peace Portal Golf Course Lounge,16900 4 Ave,Surrey,Restaurant,49.00906878,-122.75300261
1231,A019528    ,Peace Portal Golf Course Restaurant,16900 4 Ave,Surrey,Restaurant,49.00906878,-122.75300261
1232,SWOD-AKARQ2,Peace Portal Seniors Village,15441 16 Ave,Surrey,Restaurant,49.03127807,-122.79452781
1233,SHEN-9SSR22,Peachwave Clayton Yogurt,18696 Fraser Hwy,Surrey,Restaurant,49.12429034,-122.70365737
1234,JDSO-ACYQ58,Peachwave Frozen Yogurt,14360 64 Ave,Surrey,Restaurant,49.11849968,-122.82424686
1235,SHEN-A5UVGH,Peacock Bar & Grill,10257 King George Blvd,Surrey,Restaurant,49.18923985,-122.845753
1236,GEDS-642SW4,Pearl Fever (Surrey),10330 152 St,Surrey,Restaurant,49.19027016,-122.80009284
1237,SHEN-9QASUV,Pearl Fever Tea House,7310 120 St,Surrey,Restaurant,49.1357896,-122.89000833
1238,GEDS-6LJUGF,Peninsula Resort Retirement Food Service,2088 152 St,Surrey,Restaurant,49.03966889,-122.8009538
1239,SPLH-AAAUPT,Pepperoni Cafe,6388 120 St,Surrey,Restaurant,49.11879807,-122.89012869
1240,GEDS-6Y32GA,Perfect 2 for 1 Pizza (Surrey),15625 96 Ave,Surrey,Restaurant,49.17709036,-122.78948694
1241,NDAA-9C6M25,Pho 99,19533 Fraser Hwy,Surrey,Restaurant,49.11505665,-122.68181058
1242,SHEN-AP8NJL,Pho 99 Express,12837 76 Ave,Surrey,Restaurant,49.141185,-122.86667087
1243,SWOD-AFGPCU,Pho 99 Vietnamese Noodle House (Surrey),8934 152 St,Surrey,Restaurant,49.16515858,-122.80078448
1244,SHEN-APNR78,Pho Hillton Vietnamese Restaurant,18640 Fraser Hwy,Surrey,Restaurant,49.12546293,-122.70609458
1245,GEDS-7FBP3Q,Pho Hoa Hong Vietnamese Restaurant,10302 City Pky,Surrey,Restaurant,49.18995809,-122.84739212
1246,A019121    ,Pho Hoa Restaurant (Surrey),14357 104 Ave,Surrey,Restaurant,49.19172924,-122.82377185
1247,GEDS-6932JN,Pho Hung Restaurant (Surrey),16033 108 Ave,Surrey,Restaurant,49.1989669,-122.77775438
1248,ACAK-8VLMLT,Pho Newton,7488 King George Blvd,Surrey,Restaurant,49.13853724,-122.84525515
1249,HCAR-AVJVJ5,Pho Oh-Ba-Ma,15155 101 Ave,Surrey,Restaurant,49.18629935,-122.80223401
1250,NDAA-8ZMPNB,Pho Sunrise Vietnamese Cuisine,15355 24 Ave,Surrey,Restaurant,49.04583671,-122.79750443
1251,A018996    ,Pho Tam Vietnamese Restaurant,10302 City Pky,Surrey,Restaurant,49.18995809,-122.84739212
1252,NDAA-8ZRNLV,Pho Tau Bay Restaurant,7322 King George Blvd,Surrey,Restaurant,49.1353508,-122.84515819
1253,GEDS-6UHQTM,Pho Tau Bay Restaurant (Surrey),10782 148 St,Surrey,Restaurant,49.19805184,-122.81226056
1254,GEDS-76XSU2,Pick & Chews Teriyaki,1711 152 St,Surrey,Restaurant,49.0331143,-122.80166897
1255,GEDS-6WVQM8,PICS - Assisted Living Food Service,12075 75A Ave,Surrey,Restaurant,49.14031733,-122.88794031
1256,NDAA-8ZBRY3,Pikanik,1959 152 St,Surrey,Restaurant,49.03727504,-122.80146689
1257,SWOD-AF5MEJ,Pink Lotus Cafe,16016 Fraser Hwy,Surrey,Restaurant,49.1569315,-122.77828096
1258,SHEN-ABMQ4S,Pinoy's Chicken,13775 72 Ave,Surrey,Restaurant,49.13379072,-122.83907099
1259,GEDS-7NXTJY,Piquant Gourmet Foods,1627 128 St,Surrey,Restaurant,49.03172404,-122.86773745
1260,SHEN-A72QKH,Pita Pit #235,9908 King George Blvd,Surrey,Restaurant,49.18334718,-122.84499471
1261,GEDS-7FAUTC,Pita Pit (Surrey),7320 King George Blvd,Surrey,Restaurant,49.13512719,-122.84513975
1262,GEDS-7MMUPB,Pizza 24 (Surrey),9514 120 St,Surrey,Restaurant,49.17605137,-122.88986703
1263,GEDS-83MVDP,Pizza 64,13190 64 Ave,Surrey,Restaurant,49.11884568,-122.85695768
1264,SHEN-A2FN38,Pizza 64,12499 88 Ave,Surrey,Restaurant,49.16335778,-122.8766604
1265,SWOD-9Z3MVN,Pizza 64 #2,16780 64 Ave,Surrey,Restaurant,49.11868842,-122.75753449
1266,A020239    ,Pizza Factory (Surrey 2),6838 King George Blvd,Surrey,Restaurant,49.12666981,-122.84512187
1267,SHEN-ANSP7T,Pizza Hub,9436 King George Blvd,Surrey,Restaurant,49.17441007,-122.84552392
1268,GEDS-6U4THW,Pizza Hut #31104,13786 104 Ave,Surrey,Restaurant,49.19140493,-122.84037033
1269,GEDS-6U4TBQ,Pizza Hut #31106,1738 152 St,Surrey,Restaurant,49.0336339,-122.80104859
1270,GEDS-6U4QJY,Pizza Hut #31122,15951 Fraser Hwy,Surrey,Restaurant,49.15815596,-122.78024868
1271,GEDS-6U4Q7U,Pizza Hut #31123,13753 72 Ave,Surrey,Restaurant,49.13377078,-122.84058109
1272,GEDS-6U4Q4B,Pizza Hut #31124,10160 152 St,Surrey,Restaurant,49.18699498,-122.80051348
1273,SHEN-AGKNPK,Pizza Hut #31152,12477 88 Ave,Surrey,Restaurant,49.16395195,-122.8770559
1274,SWOD-AJP25M,Pizza Hut #R39801,2711 192 St,Surrey,Restaurant,49.05150946,-122.6918208
1275,GEDS-82BRGL,Pizza Inn,19390 68 Ave,Surrey,Restaurant,49.12623835,-122.68582352
1276,JDSO-ACHTG3,Pizza Knight,19161 Fraser Hwy,Surrey,Restaurant,49.11961383,-122.69181652
1277,SHEN-AU9QKB,Pizza N Paradise Restaurant Ltd,5775 176 St,Surrey,Restaurant,49.10733737,-122.73518744
1278,SPLH-A9TUJR,Pizza Nation,13980 108 Ave,Surrey,Restaurant,49.19866862,-122.83459774
1279,SHEN-9PQPQM,Pizza Pit,15989 108 Ave,Surrey,Restaurant,49.19896015,-122.77929824
1280,NDAA-9C5SN9,Pizza Plus 96,12050 96 Ave,Surrey,Restaurant,49.17699844,-122.88746876
1281,SDFO-8P6URP,Pizza Point,13651 100 Ave,Surrey,Restaurant,49.18443069,-122.8439126
1282,KSMH-AQWTG2,Pizza Town Curry House & Sweets,8553 132 St,Surrey,Restaurant,49.15823711,-122.85770818
1283,GEDS-7QVQDQ,Planet India Restaurant,13775 72 Ave,Surrey,Restaurant,49.13379072,-122.83907099
1284,GEDS-7AGRER,Polonia Bakery & Deli (Surrey),14641 108 Ave,Surrey,Restaurant,49.19890626,-122.81658094
1285,NDAA-8RKSYR,Polonia Sausage Deli,14045 104 Ave,Surrey,Restaurant,49.19169103,-122.83292548
1286,NDAA-AC3N6U,Pop Up Soup Kitchen,13483 72 Ave,Surrey,Restaurant,49.13375295,-122.84888847
1287,SPLH-AV62J6,Popeye's Supplements (Surrey),16030 24 Ave,Surrey,Restaurant,49.04521951,-122.77797867
1288,GEDS-7QXLV4,Popular Fish House,9532 120 St,Surrey,Restaurant,49.17628345,-122.88985881
1289,A018392    ,Port Kells Cafe,9531 192 St,Surrey,Restaurant,49.17562717,-122.69083866
1290,KSMH-ASMT2M,Port Kells Nurseries,18730 88 Ave,Surrey,Restaurant,49.16254018,-122.70356467
1291,SHEN-AP5M2Q,Porto Fino Express,14016 32 Ave,Surrey,Restaurant,49.06010392,-122.83346713
1292,A014274    ,Porto Fino Express (Surrey),6350 120 St,Surrey,Restaurant,49.11815677,-122.8900634
1293,GEDS-5ZHT3D,Prabu Sweets,7035 128 St,Surrey,Restaurant,49.1303486,-122.86815017
1294,NDAA-8QSTSA,Prairie Cafe,15280 Fraser Hwy,Surrey,Restaurant,49.1650491,-122.79917493
1295,GEDS-7V3QCJ,Price Pro - Deli,6899 King George Blvd,Surrey,Restaurant,49.12803784,-122.84596088
1296,GEDS-7V3QGQ,Price Pro - Snack Bar,6899 King George Blvd,Surrey,Restaurant,49.12803784,-122.84596088
1297,A017695    ,Princess Margaret Secondary School Cafeteria,12870 72 Ave,Surrey,Restaurant,49.13358041,-122.86538742
1298,NDAA-95AN4V,Pronto Pizza,15230 84 Ave,Surrey,Restaurant,49.15537021,-122.80089893
1299,ACAK-8XGT5P,PSI Sushi & Roll,10245 King George Blvd,Surrey,Restaurant,49.18879513,-122.84552689
1300,GEDS-5ZZMJS,Puccinos,7495 132 St,Surrey,Restaurant,49.13903649,-122.85697494
1301,NDAA-A9KPFF,Punjab Banquet Hall,8166 128 St,Surrey,Restaurant,49.15130553,-122.86739367
1302,SYOG-5M56PQ,Punjab Sweet House,12818 72 Ave,Surrey,Restaurant,49.13371285,-122.86737908
1303,NDAA-9CDPEY,Punjabi Masihi Church,14488 72 Ave,Surrey,Restaurant,49.13354678,-122.82071219
1304,A019658    ,Purdy's Chocolates (South Surrey),1711 152 St,Surrey,Restaurant,49.0331143,-122.80166897
1305,SHEN-9Z5MZW,Qoola Frozen Yogurt Bar,10355 152 St,Surrey,Restaurant,49.19192585,-122.8042654
1306,SWOD-A8QVAV,Quesada - Burritos & Tacos,13737 96 Ave,Surrey,Restaurant,49.17720977,-122.84275097
1307,SHEN-AKQNEW,Quizno's #674,15940 Fraser Hwy,Surrey,Restaurant,49.15704507,-122.78096494
1308,SWOD-AHYRYX,Quizno's Classic Subs #671,12077 72 Ave,Surrey,Restaurant,49.13428679,-122.88837164
1309,SWOD-AFTSDT,Quizno's Classic Subs #7266,15335 56 Ave,Surrey,Restaurant,49.10468961,-122.7980857
1310,PNEL-8QX26S,Quiznos Sub #7277,10355 120 St,Surrey,Restaurant,49.19095424,-122.89075692
1311,NDAA-A67QA4,Quiznos Sub #7833,2670 152 St,Surrey,Restaurant,49.05026809,-122.80093219
1312,NDAA-8WQRZD,Railway Cafe,13375 115 Ave,Surrey,Restaurant,49.21175112,-122.85178846
1313,ACAK-9AJSSH,Rama Sweets & Restaurant,7028 120 St,Surrey,Restaurant,49.13087217,-122.89004487
1314,SWOD-AQNTUW,Ramada Hotel - Breakfast Bar,19225 No 10 Hwy,Surrey,Restaurant,49.10466404,-122.69027245
1315,KSMH-ATMS8A,Rana Catering,8910 120 St,Surrey,Restaurant,49.16515223,-122.89006953
1316,SHEN-9SSQ9R,Rangoli Catering & Sweets Ltd.,17665 66A Ave,Surrey,Restaurant,49.1235247,-122.73321036
1317,GEDS-72BNAT,Rasoi Fine Indian Cuisine,3268 King George Blvd,Surrey,Restaurant,49.06108806,-122.81205645
1318,SYOG-5M5622,Real Canadian Superstore #1521 - Deli,7550 King George Blvd,Surrey,Restaurant,49.13966312,-122.84525795
1319,SWOD-AEQPQX,Real Canadian Superstore #1551 - Deli,2332 160 St,Surrey,Restaurant,49.04383012,-122.77640308
1320,A019207    ,Real Canadian Superstore #1556 - Deli,14650 104 Ave,Surrey,Restaurant,49.19123455,-122.81602592
1321,A016609    ,Red Baron Restaurant,12180 Beecher St,Surrey,Restaurant,49.05222907,-122.88426959
1322,NDAA-9NDRSE,Red Robin Gourmet Burgers (Guildford),10237 152 St,Surrey,Restaurant,49.1884148,-122.80130101
1323,GEDS-7KFM8D,Red Rose Restaurant,2381 King George Blvd,Surrey,Restaurant,49.04479007,-122.79414182
1324,SWOD-AHGRV8,Red Rose Restaurant,6914 King George Blvd,Surrey,Restaurant,49.1282149,-122.84516649
1325,SWOD-A53NQT,Red Shiso Japanese Restaurant,10833 160 St,Surrey,Restaurant,49.19945971,-122.7789059
1326,SPLH-ASUNJH,Relate Church,6788 152 St,Surrey,Restaurant,49.1257959,-122.80067669
1327,NDAA-953NME,Rickshaw Chinese Food,10505 King George Blvd,Surrey,Restaurant,49.1934541,-122.84566372
1328,A019020    ,Ricky's All Day Grill #2,8958 152 St,Surrey,Restaurant,49.1654512,-122.80114915
1329,JCOE-67H9A8,Ricky's All Day Grill #20,17830 56 Ave,Surrey,Restaurant,49.10399479,-122.72846685
1330,A019324    ,Ricky's Country Restaurant,2160 King George Blvd,Surrey,Restaurant,49.0414101,-122.78780138
1331,GEDS-76LVCK,Ricky's Country Restaurant - Cloverdale,19219 56 Ave,Surrey,Restaurant,49.10427952,-122.6901561
1332,NDAA-9P3PZH,Riverside Signature Banquet Hall,13030 76 Ave,Surrey,Restaurant,49.14081751,-122.86117413
1333,GEDS-84YM3G,Robin's Donuts,8005 King George Blvd,Surrey,Restaurant,49.14834266,-122.84611974
